{"type":"FeatureCollection","features":[{"type":"Feature","properties":{"huc6":"140100","name":"Colorado Headwaters","states":"CO,UT"},"geometry":{"type":"Polygon","coordinates":[[[-105.84051,40.4833],[-105.8921,40.47609],[-105.89915,40.46558],[-105.90335,40.40051],[-105.92064,40.40159],[-105.92519,40.39257],[-105.94645,40.38496],[-105.93846,40.36607],[-105.95427,40.36037],[-105.95966,40.34815],[-105.98583,40.36424],[-106.01126,40.36217],[-106.01935,40.37329],[-106.08587,40.34731],[-106.10069,40.35416],[-106.1363,40.33018],[-106.1712,40.34387],[-106.18914,40.32652],[-106.23052,40.32322],[-106.26584,40.36104],[-106.27856,40.35371],[-106.29108,40.3582],[-106.29859,40.34986],[-106.29579,40.33324],[-106.306,40.32845],[-106.33707,40.33962],[-106.35585,40.35897],[-106.3896,40.34547],[-106.4219,40.35275],[-106.44334,40.34645],[-106.48109,40.38968],[-106.47759,40.4047],[-106.48966,40.41156],[-106.51223,40.38692],[-106.52616,40.38489],[-106.53468,40.36512],[-106.5612,40.37856],[-106.61002,40.37825],[-106.62879,40.41851],[-106.62242,40.43048],[-106.64527,40.43182],[-106.65116,40.42139],[-106.6447,40.41153],[-106.65618,40.40876],[-106.64099,40.40232],[-106.63378,40.38463],[-106.65451,40.3682],[-106.6445,40.35004],[-106.68769,40.31565],[-106.6763,40.29818],[-106.66331,40.30097],[-106.65228,40.28984],[-106.6158,40.2773],[-106.60987,40.25558],[-106.58963,40.24281],[-106.60964,40.22424],[-106.65464,40.22804],[-106.63936,40.20951],[-106.61765,40.20065],[-106.64008,40.1893],[-106.62593,40.17184],[-106.65835,40.15987],[-106.6693,40.16589],[-106.68059,40.15601],[-106.66546,40.14675],[-106.66215,40.13075],[-106.68419,40.11843],[-106.6868,40.1079],[-106.70897,40.10193],[-106.71725,40.11877],[-106.74121,40.11943],[-106.74761,40.12973],[-106.78575,40.13781],[-106.8007,40.12311],[-106.79814,40.09602],[-106.81812,40.0809],[-106.82333,40.06301],[-106.84698,40.05888],[-106.94425,40.07854],[-106.96734,40.06908],[-106.98603,40.07114],[-107.01298,40.04705],[-107.02063,40.03009],[-107.04388,40.02303],[-107.0569,39.99547],[-107.06508,40.00907],[-107.08341,40.01495],[-107.12877,40.00246],[-107.13722,39.97488],[-107.17112,39.97009],[-107.1721,39.95041],[-107.18492,39.92802],[-107.17455,39.91951],[-107.18087,39.90885],[-107.20956,39.89911],[-107.23452,39.90455],[-107.25871,39.88627],[-107.25673,39.87441],[-107.28691,39.87187],[-107.27568,39.85013],[-107.3042,39.83974],[-107.30338,39.82858],[-107.28354,39.82227],[-107.29127,39.81158],[-107.28498,39.79838],[-107.26197,39.79823],[-107.26659,39.78393],[-107.2881,39.7745],[-107.32941,39.77533],[-107.33906,39.78229],[-107.36601,39.75529],[-107.41637,39.74327],[-107.42731,39.7552],[-107.42039,39.80678],[-107.46902,39.81198],[-107.48866,39.84042],[-107.5034,39.84043],[-107.51153,39.83067],[-107.54492,39.83205],[-107.55057,39.84095],[-107.56637,39.84288],[-107.58185,39.82802],[-107.58571,39.8121],[-107.6151,39.79956],[-107.62684,39.80814],[-107.6325,39.80235],[-107.64033,39.8141],[-107.64986,39.80435],[-107.6652,39.81415],[-107.68083,39.80559],[-107.69302,39.81157],[-107.69396,39.82396],[-107.7015,39.81462],[-107.7411,39.80273],[-107.74387,39.78701],[-107.76654,39.7929],[-107.79247,39.78782],[-107.80806,39.79603],[-107.81485,39.7924],[-107.81291,39.77628],[-107.84823,39.78025],[-107.85256,39.76791],[-107.8688,39.76517],[-107.90359,39.74033],[-107.92384,39.70781],[-107.94503,39.70149],[-107.93999,39.67471],[-107.92618,39.65712],[-107.9588,39.64655],[-107.99565,39.64439],[-108.0207,39.66529],[-108.04673,39.65307],[-108.07325,39.67794],[-108.1054,39.66502],[-108.12272,39.67705],[-108.13967,39.6708],[-108.15453,39.65122],[-108.16564,39.65553],[-108.19799,39.64618],[-108.21133,39.64908],[-108.21463,39.65761],[-108.22516,39.65228],[-108.22576,39.65948],[-108.27039,39.64944],[-108.29329,39.62328],[-108.30386,39.63425],[-108.31125,39.63173],[-108.3171,39.64921],[-108.33836,39.64703],[-108.34708,39.65889],[-108.38071,39.66357],[-108.39528,39.67335],[-108.40226,39.66959],[-108.41055,39.68132],[-108.44628,39.68059],[-108.47368,39.69851],[-108.49541,39.68818],[-108.52743,39.69019],[-108.53786,39.69781],[-108.55878,39.68413],[-108.56511,39.69125],[-108.6293,39.65647],[-108.65254,39.65911],[-108.65479,39.62437],[-108.68029,39.60084],[-108.71664,39.60445],[-108.73664,39.59371],[-108.77169,39.60676],[-108.81102,39.59731],[-108.82497,39.61879],[-108.83458,39.60952],[-108.85286,39.62107],[-108.87285,39.61687],[-108.87994,39.6285],[-108.88525,39.62165],[-108.90662,39.62155],[-108.92122,39.59296],[-108.94166,39.60145],[-108.95339,39.58243],[-108.99503,39.56933],[-109.00853,39.53457],[-109.0262,39.51554],[-109.03703,39.51534],[-109.05193,39.49738],[-109.07258,39.49974],[-109.07691,39.48943],[-109.08769,39.49178],[-109.10773,39.46153],[-109.09332,39.44492],[-109.10228,39.42627],[-109.08789,39.40742],[-109.05982,39.39634],[-109.06029,39.36943],[-109.02653,39.33102],[-109.0078,39.2918],[-109.01388,39.27457],[-109.00915,39.26318],[-109.03663,39.21494],[-109.02605,39.19835],[-109.04105,39.18995],[-109.035,39.17547],[-109.07876,39.1399],[-109.07702,39.12749],[-109.10051,39.09298],[-109.08083,39.09485],[-109.04761,39.07426],[-109.0353,39.08009],[-108.99491,39.07757],[-108.92965,39.05009],[-108.88857,39.06367],[-108.87444,39.07817],[-108.85054,39.08001],[-108.84445,39.09244],[-108.79567,39.09349],[-108.79009,39.07723],[-108.76569,39.06361],[-108.77098,39.05581],[-108.75085,39.04554],[-108.755,39.01494],[-108.7101,38.9953],[-108.71495,38.97251],[-108.70106,38.96218],[-108.70843,38.94301],[-108.67164,38.98232],[-108.63515,38.99635],[-108.61067,38.99381],[-108.60759,39.02003],[-108.61851,39.02274],[-108.58535,39.06299],[-108.56208,39.04989],[-108.52272,39.04641],[-108.50875,39.03258],[-108.50941,39.02184],[-108.48199,39.01388],[-108.42901,39.01579],[-108.4252,39.02245],[-108.40701,39.01649],[-108.38835,39.03233],[-108.36461,39.02802],[-108.35975,39.01496],[-108.33519,39.01218],[-108.24633,39.05149],[-108.2072,39.04951],[-108.18889,39.05863],[-108.1605,39.03965],[-108.13309,39.03216],[-108.11645,39.0436],[-108.10457,39.03159],[-108.02483,39.05435],[-107.90743,39.06083],[-107.8589,39.08007],[-107.79488,39.06188],[-107.76564,39.04345],[-107.73859,39.06599],[-107.72108,39.06487],[-107.70941,39.08286],[-107.6878,39.08807],[-107.65979,39.11238],[-107.65117,39.1309],[-107.61912,39.1549],[-107.56885,39.18126],[-107.54271,39.18222],[-107.54294,39.19584],[-107.52358,39.19786],[-107.52862,39.2033],[-107.49455,39.21857],[-107.48405,39.23544],[-107.46384,39.22839],[-107.43047,39.24038],[-107.4267,39.25769],[-107.39442,39.25633],[-107.37691,39.24628],[-107.37149,39.23905],[-107.3793,39.23112],[-107.37663,39.1988],[-107.35345,39.17304],[-107.29567,39.1538],[-107.27692,39.08993],[-107.28702,39.0638],[-107.27837,39.05413],[-107.27658,39.0302],[-107.23245,39.01988],[-107.21333,39.0317],[-107.18937,39.03284],[-107.17823,39.03034],[-107.15384,38.99383],[-107.10345,38.99177],[-107.09526,39.01073],[-107.05147,38.98496],[-107.0459,39.01556],[-107.02137,39.01384],[-106.99601,39.03397],[-106.96754,39.03096],[-106.96406,39.01709],[-106.91034,39.00082],[-106.90806,38.99252],[-106.88439,38.99051],[-106.8766,39.00719],[-106.86135,39.00964],[-106.84578,38.9863],[-106.80396,38.97814],[-106.78463,38.98627],[-106.78251,38.9993],[-106.74469,39.02665],[-106.74967,39.04277],[-106.71034,39.04763],[-106.69873,39.05584],[-106.68488,39.04519],[-106.65521,39.04415],[-106.64842,39.02218],[-106.61301,38.99578],[-106.59932,38.99795],[-106.59142,39.02552],[-106.59973,39.03452],[-106.59731,39.04461],[-106.57784,39.05245],[-106.57699,39.0794],[-106.58636,39.09572],[-106.56365,39.10642],[-106.55819,39.12104],[-106.56481,39.13278],[-106.56173,39.15494],[-106.51133,39.16341],[-106.49365,39.19835],[-106.48965,39.22782],[-106.49772,39.24198],[-106.48109,39.25997],[-106.48301,39.27256],[-106.50412,39.2849],[-106.50254,39.29835],[-106.47646,39.31514],[-106.46832,39.30726],[-106.43253,39.31622],[-106.42705,39.32325],[-106.43348,39.35405],[-106.40497,39.37912],[-106.38059,39.37631],[-106.37167,39.36199],[-106.35144,39.3538],[-106.31202,39.36228],[-106.28381,39.34951],[-106.25926,39.36205],[-106.25111,39.3577],[-106.21695,39.38325],[-106.19796,39.36833],[-106.16218,39.36199],[-106.13453,39.37965],[-106.09702,39.37797],[-106.05654,39.3587],[-106.02191,39.36164],[-106.01423,39.38698],[-105.95161,39.41465],[-105.96662,39.43852],[-105.94398,39.44084],[-105.93924,39.45813],[-105.90589,39.45967],[-105.89211,39.48422],[-105.87946,39.4839],[-105.85593,39.50514],[-105.8681,39.51925],[-105.8602,39.53118],[-105.84683,39.5238],[-105.8231,39.52991],[-105.81592,39.55218],[-105.83851,39.57259],[-105.77611,39.60517],[-105.78272,39.62922],[-105.84879,39.64417],[-105.86496,39.66719],[-105.88498,39.65709],[-105.91105,39.66234],[-105.92655,39.6733],[-105.91959,39.6901],[-105.92445,39.70407],[-105.90749,39.72699],[-105.88341,39.73731],[-105.88048,39.75945],[-105.89246,39.78217],[-105.88762,39.79705],[-105.8231,39.78567],[-105.79905,39.80331],[-105.76393,39.79495],[-105.73605,39.80492],[-105.71335,39.83807],[-105.69594,39.8391],[-105.69037,39.85202],[-105.69964,39.89163],[-105.67517,39.93327],[-105.69381,39.94228],[-105.6831,39.99285],[-105.69121,39.99703],[-105.68972,40.01368],[-105.66188,40.01641],[-105.64124,40.0343],[-105.63778,40.04614],[-105.65113,40.05852],[-105.63297,40.08141],[-105.63673,40.10719],[-105.62656,40.12748],[-105.63605,40.1463],[-105.66767,40.15832],[-105.67049,40.18496],[-105.67787,40.191],[-105.67054,40.21924],[-105.66288,40.21992],[-105.66881,40.22883],[-105.65996,40.24893],[-105.64368,40.24991],[-105.68259,40.27263],[-105.68213,40.2921],[-105.69051,40.30887],[-105.70264,40.31259],[-105.69882,40.32074],[-105.75876,40.35273],[-105.78157,40.37342],[-105.79123,40.39912],[-105.81751,40.42518],[-105.80573,40.44771],[-105.80741,40.47388],[-105.84051,40.4833]]]}},{"type":"Feature","properties":{"huc6":"140200","name":"Gunnison","states":"CO"},"geometry":{"type":"Polygon","coordinates":[[[-107.41658,39.25584],[-107.43039,39.25663],[-107.43047,39.24038],[-107.4517,39.23057],[-107.48405,39.23544],[-107.49455,39.21857],[-107.52862,39.2033],[-107.52358,39.19786],[-107.54294,39.19584],[-107.54271,39.18222],[-107.56885,39.18126],[-107.61912,39.1549],[-107.65117,39.1309],[-107.65979,39.11238],[-107.6878,39.08807],[-107.70941,39.08286],[-107.72108,39.06487],[-107.73859,39.06599],[-107.76564,39.04345],[-107.79488,39.06188],[-107.8589,39.08007],[-107.90743,39.06083],[-108.02483,39.05435],[-108.10457,39.03159],[-108.11645,39.0436],[-108.13309,39.03216],[-108.1605,39.03965],[-108.18889,39.05863],[-108.2072,39.04951],[-108.24633,39.05149],[-108.33519,39.01218],[-108.35975,39.01496],[-108.36461,39.02802],[-108.38835,39.03233],[-108.40701,39.01649],[-108.4252,39.02245],[-108.42901,39.01579],[-108.48199,39.01388],[-108.50941,39.02184],[-108.50875,39.03258],[-108.52272,39.04641],[-108.56208,39.04989],[-108.58697,39.0624],[-108.61851,39.02274],[-108.60759,39.02003],[-108.61067,38.99381],[-108.64899,38.99322],[-108.67637,38.9783],[-108.68771,38.95863],[-108.70812,38.9465],[-108.73133,38.90111],[-108.76161,38.8815],[-108.77593,38.85214],[-108.77322,38.83746],[-108.74889,38.83583],[-108.72982,38.84579],[-108.71803,38.84256],[-108.70518,38.85414],[-108.68761,38.85027],[-108.68516,38.82546],[-108.70176,38.80551],[-108.69954,38.79781],[-108.6839,38.80209],[-108.68137,38.79529],[-108.6578,38.80364],[-108.64618,38.77797],[-108.64906,38.76873],[-108.67433,38.76065],[-108.62002,38.74551],[-108.64489,38.70989],[-108.69852,38.69129],[-108.71671,38.675],[-108.66743,38.62394],[-108.66341,38.60662],[-108.67183,38.60134],[-108.64496,38.58986],[-108.65063,38.57366],[-108.64401,38.55123],[-108.62099,38.54784],[-108.61545,38.53048],[-108.59393,38.518],[-108.56835,38.47777],[-108.53828,38.45812],[-108.49783,38.4719],[-108.46176,38.4622],[-108.45418,38.44705],[-108.44086,38.4471],[-108.42466,38.41988],[-108.33607,38.40539],[-108.27257,38.37558],[-108.25374,38.36291],[-108.22217,38.31886],[-108.20131,38.31468],[-108.18446,38.32494],[-108.16442,38.3179],[-108.17253,38.30572],[-108.15477,38.30151],[-108.13004,38.31327],[-108.12256,38.30639],[-108.12093,38.27412],[-108.09478,38.28123],[-108.07849,38.27402],[-108.07961,38.25544],[-108.03724,38.25834],[-108.04289,38.23044],[-108.03465,38.22223],[-107.99941,38.236],[-107.98514,38.2275],[-107.96443,38.22971],[-107.96797,38.22252],[-107.94337,38.21233],[-107.93253,38.19606],[-107.94023,38.17731],[-107.96719,38.16151],[-107.96812,38.14414],[-107.9498,38.14325],[-107.94564,38.13385],[-107.95232,38.10997],[-107.936,38.11823],[-107.93125,38.11062],[-107.92235,38.11977],[-107.8894,38.10869],[-107.89559,38.07302],[-107.88804,38.04541],[-107.90028,38.02635],[-107.89113,38.02532],[-107.88323,38.0074],[-107.84229,38.00574],[-107.84907,37.99261],[-107.79394,37.98737],[-107.7803,37.96186],[-107.74903,37.95322],[-107.73276,37.9299],[-107.73827,37.90529],[-107.69583,37.89237],[-107.68911,37.90162],[-107.65072,37.90994],[-107.63678,37.92421],[-107.62151,37.9147],[-107.61284,37.93398],[-107.57509,37.96098],[-107.53716,37.94726],[-107.53656,37.92117],[-107.52037,37.90123],[-107.53674,37.8798],[-107.5181,37.85707],[-107.52243,37.84213],[-107.51625,37.8344],[-107.49973,37.83986],[-107.49423,37.84983],[-107.46718,37.84621],[-107.46528,37.85875],[-107.44556,37.84378],[-107.42458,37.85925],[-107.34856,37.85688],[-107.26729,37.93804],[-107.22574,37.92598],[-107.19048,37.93657],[-107.13245,37.93685],[-107.10917,37.94368],[-107.10291,37.95543],[-107.09152,37.94917],[-107.06775,37.96146],[-107.05499,37.95089],[-107.02494,37.95438],[-107.00899,37.94647],[-106.98723,37.96941],[-106.96725,37.97485],[-106.94494,37.95234],[-106.92025,37.96743],[-106.89621,37.96772],[-106.87936,37.96004],[-106.87154,37.94172],[-106.85043,37.95671],[-106.81643,37.95572],[-106.80115,37.98637],[-106.78221,38.00213],[-106.80869,38.01579],[-106.80638,38.03073],[-106.76734,38.07962],[-106.74438,38.09348],[-106.68484,38.08138],[-106.6701,38.08689],[-106.6715,38.09352],[-106.63334,38.12831],[-106.61056,38.1346],[-106.59706,38.15693],[-106.59801,38.18932],[-106.58721,38.1894],[-106.5758,38.21212],[-106.55481,38.22913],[-106.55928,38.25161],[-106.5363,38.26204],[-106.50489,38.31491],[-106.47391,38.32216],[-106.47259,38.31295],[-106.46401,38.31303],[-106.43425,38.28186],[-106.39499,38.28211],[-106.37953,38.29311],[-106.33868,38.28701],[-106.31607,38.34263],[-106.24387,38.35232],[-106.23724,38.37971],[-106.25315,38.40017],[-106.24412,38.41869],[-106.24572,38.43915],[-106.26963,38.44454],[-106.31239,38.49481],[-106.33018,38.49369],[-106.34409,38.50442],[-106.34266,38.52127],[-106.35504,38.54262],[-106.34472,38.56851],[-106.3643,38.61454],[-106.38556,38.62543],[-106.38002,38.63856],[-106.42954,38.65137],[-106.43819,38.68329],[-106.45196,38.69848],[-106.44358,38.70927],[-106.4252,38.71035],[-106.41668,38.72753],[-106.41277,38.79074],[-106.42271,38.80834],[-106.41596,38.82424],[-106.38354,38.82473],[-106.36503,38.85319],[-106.34932,38.85485],[-106.34903,38.86487],[-106.32103,38.89336],[-106.32617,38.91109],[-106.37308,38.90655],[-106.38088,38.92581],[-106.40244,38.91067],[-106.42137,38.92808],[-106.43728,38.91494],[-106.46503,38.91044],[-106.52653,38.95521],[-106.52195,38.96861],[-106.52842,38.98056],[-106.55417,38.99861],[-106.57722,38.99042],[-106.61301,38.99578],[-106.64842,39.02218],[-106.65521,39.04415],[-106.68488,39.04519],[-106.69873,39.05584],[-106.71034,39.04763],[-106.74967,39.04277],[-106.74469,39.02665],[-106.78251,38.9993],[-106.78463,38.98627],[-106.80396,38.97814],[-106.84578,38.9863],[-106.86135,39.00964],[-106.8766,39.00719],[-106.88439,38.99051],[-106.90806,38.99252],[-106.91034,39.00082],[-106.96406,39.01709],[-106.96754,39.03096],[-106.99601,39.03397],[-107.02137,39.01384],[-107.0459,39.01556],[-107.05147,38.98496],[-107.09526,39.01073],[-107.10345,38.99177],[-107.15384,38.99383],[-107.17823,39.03034],[-107.18937,39.03284],[-107.21333,39.0317],[-107.23245,39.01988],[-107.27658,39.0302],[-107.27837,39.05413],[-107.28702,39.0638],[-107.27692,39.08993],[-107.29567,39.1538],[-107.35345,39.17304],[-107.38063,39.21007],[-107.3793,39.23112],[-107.37149,39.23905],[-107.37691,39.24628],[-107.39442,39.25633],[-107.41658,39.25584]]]}},{"type":"Feature","properties":{"huc6":"140300","name":"Upper Colorado-Dolores","states":"CO,UT"},"geometry":{"type":"Polygon","coordinates":[[[-109.1235,39.45311],[-109.12866,39.45896],[-109.16584,39.44272],[-109.18598,39.45369],[-109.20894,39.45094],[-109.22268,39.44073],[-109.26191,39.44402],[-109.2745,39.45265],[-109.33401,39.41658],[-109.34127,39.42356],[-109.36014,39.41478],[-109.39253,39.4126],[-109.39879,39.41944],[-109.42414,39.40869],[-109.42884,39.3969],[-109.44501,39.38971],[-109.45708,39.36143],[-109.474,39.3609],[-109.49942,39.33767],[-109.51376,39.33661],[-109.52183,39.30971],[-109.5467,39.29861],[-109.5589,39.25945],[-109.5549,39.23807],[-109.58645,39.22595],[-109.62387,39.19149],[-109.62942,39.17602],[-109.65322,39.18224],[-109.657,39.17256],[-109.71132,39.15798],[-109.72203,39.14714],[-109.68906,39.11046],[-109.68004,39.0786],[-109.68794,39.06488],[-109.67656,39.04036],[-109.68886,39.01464],[-109.68591,38.9935],[-109.70169,38.97741],[-109.67526,38.91998],[-109.68336,38.89385],[-109.69464,38.88635],[-109.69751,38.86435],[-109.70816,38.86459],[-109.71994,38.85203],[-109.6694,38.8176],[-109.69231,38.80528],[-109.73178,38.82641],[-109.77326,38.80761],[-109.7659,38.79474],[-109.78702,38.78283],[-109.78958,38.76707],[-109.82694,38.73967],[-109.84364,38.70378],[-109.82925,38.69233],[-109.82958,38.68287],[-109.85159,38.67067],[-109.80292,38.63387],[-109.80797,38.59057],[-109.79248,38.57993],[-109.78995,38.55387],[-109.80824,38.51069],[-109.80425,38.47919],[-109.82157,38.45837],[-109.81583,38.44109],[-109.8252,38.43582],[-109.81729,38.42281],[-109.83198,38.40518],[-109.86581,38.38874],[-109.86787,38.36022],[-109.85271,38.32037],[-109.87509,38.29031],[-109.86191,38.27358],[-109.86312,38.23026],[-109.8689,38.20971],[-109.8924,38.19549],[-109.88036,38.19022],[-109.87443,38.17131],[-109.88069,38.14924],[-109.87008,38.14405],[-109.88053,38.12546],[-109.84669,38.11836],[-109.8464,38.09994],[-109.81779,38.07958],[-109.82268,38.06614],[-109.81014,38.05329],[-109.81633,38.0257],[-109.80776,38.02204],[-109.80493,37.99069],[-109.81959,37.97402],[-109.79787,37.96093],[-109.81033,37.9477],[-109.80025,37.94635],[-109.78911,37.92169],[-109.79228,37.90643],[-109.78042,37.89925],[-109.78043,37.84462],[-109.79161,37.83198],[-109.73784,37.84743],[-109.71999,37.82302],[-109.64366,37.83291],[-109.63904,37.82443],[-109.6221,37.84603],[-109.60751,37.83028],[-109.59206,37.83823],[-109.57031,37.8304],[-109.55849,37.83538],[-109.53421,37.82266],[-109.51198,37.82689],[-109.5033,37.83551],[-109.47445,37.84105],[-109.4738,37.85972],[-109.49444,37.8565],[-109.49548,37.871],[-109.47308,37.88738],[-109.47231,37.90514],[-109.38054,37.95572],[-109.33914,37.95763],[-109.31441,37.98227],[-109.27073,37.95185],[-109.27846,37.92393],[-109.25661,37.93043],[-109.23923,37.9035],[-109.21552,37.90345],[-109.20424,37.88724],[-109.17001,37.87642],[-109.13729,37.88566],[-109.12907,37.90094],[-109.10336,37.91624],[-109.04688,37.92146],[-109.03354,37.93162],[-109.0319,37.95444],[-109.00324,37.96218],[-109.00249,37.93737],[-108.98131,37.91934],[-108.98157,37.91086],[-108.97051,37.90733],[-108.93704,37.93399],[-108.92617,37.9245],[-108.90657,37.93687],[-108.89379,37.92335],[-108.86652,37.9316],[-108.85811,37.91218],[-108.83528,37.91577],[-108.83726,37.87497],[-108.8274,37.8586],[-108.84571,37.84721],[-108.85549,37.82277],[-108.88217,37.81024],[-108.88019,37.78349],[-108.81763,37.75686],[-108.78255,37.78719],[-108.76776,37.76509],[-108.75715,37.76362],[-108.77051,37.74458],[-108.77475,37.72127],[-108.76151,37.67547],[-108.74781,37.67131],[-108.75858,37.65415],[-108.75509,37.63026],[-108.7463,37.62548],[-108.7521,37.61167],[-108.73201,37.59547],[-108.71879,37.60272],[-108.69119,37.58614],[-108.65978,37.59698],[-108.63308,37.58605],[-108.6136,37.59254],[-108.60107,37.57349],[-108.60887,37.56012],[-108.59095,37.55091],[-108.59478,37.52799],[-108.58669,37.49121],[-108.5535,37.49132],[-108.554,37.47968],[-108.525,37.4558],[-108.50891,37.46057],[-108.45846,37.43418],[-108.44449,37.44212],[-108.41426,37.43909],[-108.39212,37.42333],[-108.38719,37.40516],[-108.37924,37.4063],[-108.35878,37.43528],[-108.32942,37.41977],[-108.31135,37.41974],[-108.26549,37.4577],[-108.26418,37.46647],[-108.24362,37.46648],[-108.19408,37.49838],[-108.11701,37.49135],[-108.07311,37.45981],[-108.07888,37.43927],[-108.05359,37.43731],[-108.03311,37.46486],[-108.03759,37.50281],[-108.03122,37.50949],[-108.03473,37.53287],[-108.01999,37.55366],[-108.02312,37.59096],[-107.95731,37.6485],[-107.97496,37.68366],[-107.96879,37.69666],[-107.90285,37.71878],[-107.87766,37.71578],[-107.87577,37.73875],[-107.86185,37.75599],[-107.86861,37.76702],[-107.86029,37.77546],[-107.84112,37.77401],[-107.82224,37.79563],[-107.82873,37.81169],[-107.80853,37.8241],[-107.79662,37.82274],[-107.77955,37.84916],[-107.78267,37.86785],[-107.75604,37.88312],[-107.73508,37.91075],[-107.73276,37.9299],[-107.74903,37.95322],[-107.7803,37.96186],[-107.79611,37.98862],[-107.84907,37.99261],[-107.84229,38.00574],[-107.89089,38.01349],[-107.89113,38.02532],[-107.90028,38.02635],[-107.88804,38.04541],[-107.89559,38.07302],[-107.8894,38.10869],[-107.92235,38.11977],[-107.93125,38.11062],[-107.936,38.11823],[-107.95232,38.10997],[-107.94564,38.13385],[-107.9498,38.14325],[-107.96812,38.14414],[-107.96719,38.16151],[-107.94023,38.17731],[-107.93253,38.19606],[-107.94337,38.21233],[-107.96797,38.22252],[-107.96443,38.22971],[-107.98514,38.2275],[-107.99941,38.236],[-108.03465,38.22223],[-108.04289,38.23044],[-108.03724,38.25834],[-108.07961,38.25544],[-108.07849,38.27402],[-108.09478,38.28123],[-108.12093,38.27412],[-108.12256,38.30639],[-108.13004,38.31327],[-108.15477,38.30151],[-108.17253,38.30572],[-108.16442,38.3179],[-108.18446,38.32494],[-108.20131,38.31468],[-108.22217,38.31886],[-108.25374,38.36291],[-108.27257,38.37558],[-108.33607,38.40539],[-108.42466,38.41988],[-108.44086,38.4471],[-108.45418,38.44705],[-108.46176,38.4622],[-108.49783,38.4719],[-108.53828,38.45812],[-108.56835,38.47777],[-108.59393,38.518],[-108.61545,38.53048],[-108.62099,38.54784],[-108.64401,38.55123],[-108.65063,38.57366],[-108.64496,38.58986],[-108.67183,38.60134],[-108.66341,38.60662],[-108.66743,38.62394],[-108.71812,38.67868],[-108.64489,38.70989],[-108.62002,38.74551],[-108.67433,38.76065],[-108.64906,38.76873],[-108.64618,38.77797],[-108.6578,38.80364],[-108.68137,38.79529],[-108.6839,38.80209],[-108.69954,38.79781],[-108.70176,38.80551],[-108.68516,38.82546],[-108.68761,38.85027],[-108.70518,38.85414],[-108.71803,38.84256],[-108.72982,38.84579],[-108.74889,38.83583],[-108.77322,38.83746],[-108.77745,38.84423],[-108.76161,38.8815],[-108.73133,38.90111],[-108.70833,38.94119],[-108.71178,38.94821],[-108.70106,38.96218],[-108.71495,38.97251],[-108.7101,38.9953],[-108.755,39.01494],[-108.75085,39.04554],[-108.77098,39.05581],[-108.76569,39.06361],[-108.79009,39.07723],[-108.79567,39.09349],[-108.84445,39.09244],[-108.85054,39.08001],[-108.87444,39.07817],[-108.88857,39.06367],[-108.92965,39.05009],[-108.99491,39.07757],[-109.0353,39.08009],[-109.04761,39.07426],[-109.08083,39.09485],[-109.10051,39.09298],[-109.07702,39.12749],[-109.07876,39.1399],[-109.035,39.17547],[-109.04105,39.18995],[-109.02605,39.19835],[-109.03663,39.21494],[-109.00915,39.26318],[-109.01388,39.27457],[-109.0078,39.2918],[-109.02653,39.33102],[-109.06029,39.36943],[-109.05982,39.39634],[-109.08789,39.40742],[-109.10228,39.42627],[-109.09332,39.44492],[-109.10804,39.45826],[-109.1235,39.45311]]]}},{"type":"Feature","properties":{"huc6":"140401","name":"Upper Green","states":"CO,UT,WY"},"geometry":{"type":"Polygon","coordinates":[[[-110.0315,43.44945],[-110.0617,43.45081],[-110.09838,43.43609],[-110.08584,43.4084],[-110.11222,43.4032],[-110.10205,43.38381],[-110.11633,43.36457],[-110.16833,43.38177],[-110.1933,43.36881],[-110.19741,43.35655],[-110.23887,43.351],[-110.26595,43.32937],[-110.24901,43.28514],[-110.17577,43.27114],[-110.16954,43.24196],[-110.15833,43.23586],[-110.1666,43.2187],[-110.19075,43.22344],[-110.20087,43.21141],[-110.1957,43.18784],[-110.20176,43.16724],[-110.19267,43.14514],[-110.20499,43.13991],[-110.19969,43.13201],[-110.21179,43.12129],[-110.21228,43.108],[-110.26989,43.09916],[-110.27246,43.08355],[-110.28485,43.08176],[-110.28331,43.07419],[-110.29961,43.06626],[-110.35349,43.06888],[-110.4245,43.04523],[-110.46895,43.04756],[-110.46737,43.03378],[-110.48768,43.00515],[-110.51865,42.99529],[-110.51957,42.98385],[-110.55547,42.96833],[-110.56899,42.97857],[-110.5734,42.99922],[-110.64483,42.99983],[-110.62954,42.96133],[-110.62101,42.95864],[-110.62329,42.95137],[-110.61006,42.95415],[-110.60009,42.93725],[-110.6017,42.92608],[-110.61971,42.91107],[-110.59743,42.88768],[-110.57694,42.81865],[-110.58888,42.79397],[-110.64116,42.80302],[-110.63251,42.76904],[-110.63649,42.74325],[-110.61632,42.72742],[-110.62685,42.71161],[-110.64528,42.70915],[-110.64258,42.67837],[-110.61376,42.6808],[-110.62133,42.66484],[-110.61697,42.64603],[-110.63578,42.63626],[-110.62379,42.60426],[-110.63216,42.5854],[-110.61771,42.57753],[-110.61552,42.54128],[-110.65321,42.53042],[-110.67092,42.53661],[-110.68119,42.52558],[-110.69608,42.52517],[-110.71494,42.54934],[-110.72368,42.59123],[-110.73606,42.58885],[-110.72561,42.54246],[-110.70498,42.51132],[-110.70313,42.48214],[-110.68939,42.48068],[-110.67282,42.44062],[-110.65217,42.42395],[-110.63408,42.36826],[-110.69747,42.35458],[-110.73557,42.33189],[-110.74733,42.33217],[-110.7644,42.34956],[-110.79414,42.32221],[-110.81025,42.26182],[-110.80452,42.23747],[-110.81092,42.20079],[-110.80201,42.19068],[-110.8123,42.17727],[-110.80505,42.17507],[-110.80264,42.15589],[-110.78406,42.15173],[-110.79849,42.13691],[-110.79196,42.09939],[-110.80296,42.08583],[-110.79367,42.0434],[-110.80046,42.01596],[-110.78824,42.00231],[-110.8003,41.98071],[-110.79697,41.96919],[-110.8064,41.96096],[-110.77983,41.95758],[-110.77788,41.93542],[-110.74903,41.9369],[-110.73364,41.92401],[-110.6967,41.92235],[-110.67123,41.91008],[-110.66411,41.90002],[-110.67315,41.88943],[-110.60979,41.85624],[-110.61234,41.83672],[-110.5986,41.8327],[-110.59853,41.82287],[-110.6087,41.79315],[-110.63225,41.77386],[-110.63274,41.76563],[-110.62227,41.76516],[-110.62165,41.73748],[-110.64627,41.73467],[-110.65642,41.71597],[-110.67817,41.70704],[-110.67264,41.68812],[-110.7142,41.6773],[-110.78005,41.69872],[-110.85448,41.70867],[-110.86874,41.70476],[-110.8652,41.69556],[-110.90991,41.66739],[-110.9249,41.63319],[-110.91877,41.62363],[-110.92534,41.59605],[-110.91401,41.5918],[-110.91132,41.57923],[-110.91654,41.57463],[-110.888,41.5649],[-110.88079,41.54558],[-110.89185,41.52087],[-110.87445,41.51178],[-110.87949,41.50218],[-110.86703,41.4934],[-110.8771,41.46668],[-110.89027,41.45564],[-110.88804,41.44732],[-110.87429,41.44696],[-110.88852,41.42904],[-110.88447,41.41692],[-110.90672,41.4035],[-110.89038,41.39286],[-110.90679,41.37375],[-110.90793,41.35243],[-110.88479,41.36678],[-110.82181,41.36478],[-110.83018,41.35781],[-110.82911,41.34685],[-110.81462,41.34037],[-110.81412,41.33104],[-110.83365,41.31904],[-110.82825,41.29729],[-110.8399,41.29479],[-110.80286,41.27437],[-110.81,41.26738],[-110.80708,41.24399],[-110.82455,41.22427],[-110.81067,41.21472],[-110.81378,41.20435],[-110.79968,41.20426],[-110.78943,41.2137],[-110.77213,41.21147],[-110.77525,41.17309],[-110.73523,41.19057],[-110.71657,41.17817],[-110.71867,41.16247],[-110.70427,41.16362],[-110.70917,41.11799],[-110.71678,41.10247],[-110.7451,41.08881],[-110.74632,41.0619],[-110.71923,41.05206],[-110.70478,41.03502],[-110.71145,41.01176],[-110.73321,40.98436],[-110.73056,40.9769],[-110.69159,40.96474],[-110.66658,40.9345],[-110.6771,40.91137],[-110.69682,40.89278],[-110.6917,40.87744],[-110.7094,40.8685],[-110.69983,40.86287],[-110.70574,40.85175],[-110.68298,40.8046],[-110.68436,40.76027],[-110.69676,40.74675],[-110.65662,40.74028],[-110.62517,40.76961],[-110.6071,40.75722],[-110.58322,40.76269],[-110.56921,40.75636],[-110.54705,40.77366],[-110.52367,40.76144],[-110.49986,40.76763],[-110.48714,40.78021],[-110.47255,40.77178],[-110.45715,40.78322],[-110.43259,40.77848],[-110.42424,40.79226],[-110.4108,40.78428],[-110.37439,40.7881],[-110.35482,40.8005],[-110.34314,40.82304],[-110.32029,40.82047],[-110.29477,40.83312],[-110.28274,40.82815],[-110.26175,40.83471],[-110.20242,40.82169],[-110.1889,40.82578],[-110.17623,40.81768],[-110.15827,40.82081],[-110.10298,40.80796],[-110.02467,40.82038],[-109.93194,40.79638],[-109.86985,40.76389],[-109.83482,40.7682],[-109.81522,40.77965],[-109.7649,40.78254],[-109.75287,40.80285],[-109.73203,40.79471],[-109.70207,40.80357],[-109.67663,40.79519],[-109.65319,40.7996],[-109.63202,40.81588],[-109.60001,40.81551],[-109.58163,40.82534],[-109.57159,40.81353],[-109.52846,40.8276],[-109.51335,40.8107],[-109.5164,40.75473],[-109.48439,40.73974],[-109.47307,40.74386],[-109.46874,40.7557],[-109.43653,40.75755],[-109.44063,40.76524],[-109.43395,40.77746],[-109.40902,40.79124],[-109.39517,40.7509],[-109.37738,40.74559],[-109.37343,40.71456],[-109.32782,40.71178],[-109.27738,40.73908],[-109.25882,40.73252],[-109.25428,40.69059],[-109.2452,40.6844],[-109.22324,40.67965],[-109.21267,40.68843],[-109.20756,40.67763],[-109.18801,40.68009],[-109.17992,40.66938],[-109.14379,40.6712],[-109.11822,40.63965],[-109.10236,40.65464],[-109.03944,40.64556],[-109.0253,40.63027],[-109.02518,40.61841],[-109.01278,40.6105],[-109.01688,40.58773],[-108.99652,40.57559],[-108.98632,40.5281],[-108.97788,40.53894],[-108.93729,40.55234],[-108.93794,40.56038],[-108.92554,40.56704],[-108.92803,40.5741],[-108.89413,40.58386],[-108.87499,40.60697],[-108.85645,40.61024],[-108.84809,40.59995],[-108.83044,40.60495],[-108.81251,40.58996],[-108.77549,40.60071],[-108.76308,40.59107],[-108.74604,40.59286],[-108.74566,40.58508],[-108.7283,40.57517],[-108.70632,40.57885],[-108.68618,40.56336],[-108.62173,40.55511],[-108.58622,40.58288],[-108.58294,40.60708],[-108.56884,40.60669],[-108.54564,40.62391],[-108.55182,40.64894],[-108.54152,40.65382],[-108.53809,40.67069],[-108.56013,40.69359],[-108.54835,40.7129],[-108.57485,40.73151],[-108.60963,40.73847],[-108.62742,40.75487],[-108.62003,40.76629],[-108.62831,40.78133],[-108.61194,40.78963],[-108.61146,40.80836],[-108.5828,40.81621],[-108.57863,40.83919],[-108.54409,40.84749],[-108.52589,40.83718],[-108.51271,40.83931],[-108.50624,40.85694],[-108.4708,40.86909],[-108.42299,40.90236],[-108.41307,40.92593],[-108.42669,40.93802],[-108.41517,40.95426],[-108.41728,40.99242],[-108.40426,40.99759],[-108.40773,41.00921],[-108.38802,41.01388],[-108.40005,41.02415],[-108.38956,41.03896],[-108.33408,41.04598],[-108.3433,41.05437],[-108.36647,41.05209],[-108.35543,41.05942],[-108.35431,41.07344],[-108.36892,41.09751],[-108.3639,41.11413],[-108.26473,41.19496],[-108.27336,41.2003],[-108.29073,41.19541],[-108.30199,41.20485],[-108.31254,41.1947],[-108.31056,41.17914],[-108.34051,41.17963],[-108.3857,41.19315],[-108.38845,41.20532],[-108.374,41.22078],[-108.38178,41.23347],[-108.37539,41.24251],[-108.39394,41.26575],[-108.35773,41.29341],[-108.36352,41.29797],[-108.35919,41.3035],[-108.33777,41.30843],[-108.30782,41.33652],[-108.31507,41.34543],[-108.30227,41.36145],[-108.30736,41.36994],[-108.29188,41.37366],[-108.28008,41.39766],[-108.24564,41.39423],[-108.22758,41.40107],[-108.22185,41.41161],[-108.20502,41.41228],[-108.21222,41.43955],[-108.20094,41.46613],[-108.22118,41.47193],[-108.24037,41.52037],[-108.25465,41.51997],[-108.25679,41.53676],[-108.2768,41.55015],[-108.28206,41.56435],[-108.30372,41.55838],[-108.31524,41.5724],[-108.34758,41.57811],[-108.35312,41.5941],[-108.32335,41.6061],[-108.32825,41.6148],[-108.31085,41.63315],[-108.3253,41.64254],[-108.35103,41.64003],[-108.36037,41.64807],[-108.35994,41.66956],[-108.3901,41.65183],[-108.44485,41.65546],[-108.50045,41.6758],[-108.5248,41.67724],[-108.53944,41.66538],[-108.60733,41.66654],[-108.58711,41.69255],[-108.58768,41.70566],[-108.60033,41.71758],[-108.5841,41.73477],[-108.58434,41.7586],[-108.62725,41.78327],[-108.67756,41.78934],[-108.70374,41.80978],[-108.74387,41.80947],[-108.7648,41.81713],[-108.77022,41.82771],[-108.81793,41.8417],[-108.87185,41.83233],[-108.8901,41.8367],[-108.8864,41.8303],[-108.90351,41.8214],[-108.93856,41.82578],[-108.98311,41.79918],[-108.99848,41.80258],[-109.0029,41.81768],[-109.02384,41.83298],[-109.00522,41.85421],[-109.01812,41.85928],[-109.01439,41.86926],[-109.06522,41.89909],[-109.06906,41.90591],[-109.05857,41.92026],[-109.06764,41.92894],[-109.05691,41.93104],[-109.04316,41.91591],[-109.01861,41.91878],[-109.00935,41.92527],[-109.00826,41.9379],[-108.99562,41.94297],[-108.99424,41.96015],[-108.97484,41.96812],[-108.95646,41.96538],[-108.95196,41.9792],[-108.91112,42.01085],[-108.89889,42.04126],[-108.90542,42.05663],[-108.84322,42.10144],[-108.84825,42.11453],[-108.84125,42.14612],[-108.86656,42.15167],[-108.8735,42.17317],[-108.87207,42.19022],[-108.8584,42.1996],[-108.87636,42.23894],[-108.84846,42.26052],[-108.87158,42.28296],[-108.86465,42.29144],[-108.88134,42.31369],[-108.86533,42.31744],[-108.86727,42.33753],[-108.88968,42.33693],[-108.88772,42.34864],[-108.90842,42.35409],[-108.89511,42.36035],[-108.89836,42.36787],[-108.91522,42.37027],[-108.91476,42.38253],[-108.93949,42.3853],[-108.9687,42.41427],[-108.992,42.41757],[-108.99132,42.42788],[-109.00232,42.43068],[-109.02039,42.42146],[-109.0234,42.42919],[-109.03419,42.4282],[-109.03137,42.43492],[-109.0598,42.43478],[-109.06294,42.44654],[-109.12094,42.45421],[-109.12887,42.4769],[-109.16482,42.48424],[-109.16774,42.49229],[-109.18204,42.48936],[-109.18537,42.50464],[-109.20418,42.50725],[-109.19561,42.54422],[-109.16746,42.57167],[-109.13938,42.57698],[-109.12167,42.61987],[-109.11394,42.61667],[-109.09462,42.62901],[-109.09387,42.64175],[-109.11377,42.65229],[-109.11482,42.66344],[-109.12696,42.67064],[-109.13753,42.70514],[-109.12862,42.7083],[-109.14779,42.72744],[-109.13227,42.73738],[-109.17957,42.75109],[-109.19552,42.76852],[-109.20997,42.77043],[-109.21755,42.76019],[-109.23607,42.76837],[-109.23653,42.77863],[-109.21218,42.79779],[-109.23675,42.80955],[-109.24683,42.80616],[-109.26971,42.82522],[-109.2789,42.84589],[-109.31955,42.85915],[-109.34541,42.91883],[-109.37054,42.94552],[-109.39805,42.93925],[-109.43279,42.96826],[-109.45427,42.97008],[-109.46204,42.98914],[-109.49244,42.99548],[-109.50221,43.0105],[-109.55261,43.0125],[-109.55583,43.02724],[-109.54879,43.03692],[-109.5709,43.04958],[-109.55302,43.05876],[-109.55296,43.0722],[-109.57056,43.09981],[-109.62132,43.1262],[-109.63001,43.16325],[-109.65133,43.16694],[-109.65874,43.20133],[-109.67617,43.21493],[-109.67016,43.22907],[-109.67782,43.23597],[-109.67402,43.24789],[-109.69268,43.26517],[-109.67873,43.27348],[-109.68574,43.28563],[-109.67198,43.30936],[-109.70027,43.33466],[-109.69429,43.36555],[-109.7088,43.37439],[-109.7584,43.3661],[-109.78377,43.38771],[-109.79895,43.39044],[-109.87813,43.37848],[-109.92341,43.39798],[-109.94731,43.42179],[-109.9689,43.42038],[-109.98971,43.42957],[-109.99711,43.44454],[-110.02193,43.4409],[-110.0315,43.44945]]]}},{"type":"Feature","properties":{"huc6":"140402","name":"Great Divide Closed Basin","states":"WY"},"geometry":{"type":"Polygon","coordinates":[[[-107.93318,42.39398],[-107.95881,42.39986],[-107.99235,42.37698],[-107.99973,42.36244],[-107.96574,42.34148],[-107.97955,42.32866],[-108.02068,42.32003],[-108.06662,42.33039],[-108.09923,42.31681],[-108.10049,42.2975],[-108.13406,42.27837],[-108.21979,42.2911],[-108.2344,42.24663],[-108.23018,42.24088],[-108.29217,42.21537],[-108.30567,42.22139],[-108.31759,42.21342],[-108.33779,42.21618],[-108.36699,42.23281],[-108.38261,42.22465],[-108.43162,42.22458],[-108.42837,42.23489],[-108.43594,42.24079],[-108.49193,42.25501],[-108.48181,42.2634],[-108.52893,42.26328],[-108.57331,42.28172],[-108.59261,42.3165],[-108.65631,42.30607],[-108.66638,42.31558],[-108.68577,42.31372],[-108.71312,42.29538],[-108.72341,42.27],[-108.75015,42.27926],[-108.79462,42.26338],[-108.8252,42.27221],[-108.83898,42.26773],[-108.8735,42.24224],[-108.87697,42.23032],[-108.86231,42.21911],[-108.8584,42.1996],[-108.87207,42.19022],[-108.86656,42.15167],[-108.84125,42.14612],[-108.84825,42.11453],[-108.84322,42.10144],[-108.90542,42.05663],[-108.89889,42.04126],[-108.91112,42.01085],[-108.95196,41.9792],[-108.95646,41.96538],[-108.97484,41.96812],[-108.99424,41.96015],[-108.99562,41.94297],[-109.00826,41.9379],[-109.00935,41.92527],[-109.01861,41.91878],[-109.04316,41.91591],[-109.05691,41.93104],[-109.06764,41.92894],[-109.05857,41.92026],[-109.06906,41.90591],[-109.01439,41.86926],[-109.01812,41.85928],[-109.0053,41.85029],[-109.02384,41.83298],[-109.0029,41.81768],[-108.99354,41.79769],[-108.93856,41.82578],[-108.90351,41.8214],[-108.8864,41.8303],[-108.8901,41.8367],[-108.87185,41.83233],[-108.81793,41.8417],[-108.77022,41.82771],[-108.7648,41.81713],[-108.74387,41.80947],[-108.70374,41.80978],[-108.67756,41.78934],[-108.62725,41.78327],[-108.58736,41.76471],[-108.5841,41.73477],[-108.60033,41.71758],[-108.58768,41.70566],[-108.58711,41.69255],[-108.60659,41.6745],[-108.60169,41.66426],[-108.53944,41.66538],[-108.5248,41.67724],[-108.50045,41.6758],[-108.44485,41.65546],[-108.3901,41.65183],[-108.35994,41.66956],[-108.36037,41.64807],[-108.35103,41.64003],[-108.3253,41.64254],[-108.31085,41.63315],[-108.32825,41.6148],[-108.32335,41.6061],[-108.35312,41.5941],[-108.34758,41.57811],[-108.31524,41.5724],[-108.30372,41.55838],[-108.12845,41.58955],[-108.13198,41.60279],[-108.12101,41.61457],[-108.1293,41.62075],[-108.12676,41.63118],[-108.08818,41.64203],[-108.07036,41.63157],[-108.01395,41.63017],[-107.96145,41.57153],[-107.95777,41.55046],[-107.93269,41.51249],[-107.89123,41.4833],[-107.88137,41.48633],[-107.87095,41.51064],[-107.84597,41.50655],[-107.79086,41.54704],[-107.77395,41.54686],[-107.72815,41.56699],[-107.72578,41.54942],[-107.67884,41.54074],[-107.66611,41.52336],[-107.63338,41.53485],[-107.62422,41.52069],[-107.58918,41.53813],[-107.57634,41.51253],[-107.54264,41.5282],[-107.53108,41.54907],[-107.51258,41.55968],[-107.50123,41.53829],[-107.47856,41.52844],[-107.40982,41.58114],[-107.39381,41.60237],[-107.38747,41.62623],[-107.40975,41.62466],[-107.45928,41.65093],[-107.44165,41.67487],[-107.38447,41.70716],[-107.3786,41.71411],[-107.38566,41.72199],[-107.35657,41.74842],[-107.35126,41.76647],[-107.37982,41.7928],[-107.36235,41.80184],[-107.37454,41.8179],[-107.33935,41.83466],[-107.34183,41.85283],[-107.32073,41.86533],[-107.32216,41.88228],[-107.33577,41.89537],[-107.33316,41.90728],[-107.31794,41.91443],[-107.2976,41.95003],[-107.24672,41.88633],[-107.22031,41.86793],[-107.16311,41.85387],[-107.14385,41.88058],[-107.11439,41.8773],[-107.12098,41.88895],[-107.10982,41.90181],[-107.13994,41.94086],[-107.13207,41.95572],[-107.13951,41.95822],[-107.13804,41.96767],[-107.12742,41.97343],[-107.13332,41.98292],[-107.14741,41.98118],[-107.14153,42.00585],[-107.14959,42.00535],[-107.12667,42.04846],[-107.09854,42.07184],[-107.10218,42.0762],[-107.08584,42.08211],[-107.09599,42.08907],[-107.0727,42.10129],[-107.12431,42.11661],[-107.09646,42.1321],[-107.08575,42.14957],[-107.10684,42.15905],[-107.11497,42.17191],[-107.14901,42.17344],[-107.18118,42.15871],[-107.18747,42.16953],[-107.21161,42.1733],[-107.19851,42.18722],[-107.20016,42.19483],[-107.21004,42.19574],[-107.19748,42.21013],[-107.21508,42.23581],[-107.208,42.24897],[-107.21506,42.25236],[-107.26156,42.26339],[-107.29938,42.2202],[-107.32882,42.21626],[-107.38776,42.23668],[-107.40798,42.23153],[-107.47375,42.23874],[-107.48299,42.24994],[-107.52394,42.24905],[-107.58162,42.27039],[-107.5914,42.29807],[-107.58442,42.31173],[-107.59254,42.31393],[-107.63958,42.30213],[-107.68575,42.26987],[-107.6928,42.25699],[-107.7158,42.26386],[-107.75174,42.25479],[-107.83661,42.2509],[-107.8352,42.26525],[-107.87531,42.26689],[-107.86722,42.29425],[-107.87163,42.30079],[-107.93841,42.31214],[-107.94346,42.32059],[-107.91796,42.39257],[-107.93318,42.39398]]]}},{"type":"Feature","properties":{"huc6":"140500","name":"White-Yampa","states":"CO,UT,WY"},"geometry":{"type":"Polygon","coordinates":[[[-108.07814,41.63542],[-108.08818,41.64203],[-108.12676,41.63118],[-108.1293,41.62075],[-108.12101,41.61457],[-108.13198,41.60279],[-108.12845,41.58955],[-108.28206,41.56435],[-108.2768,41.55015],[-108.25679,41.53676],[-108.25465,41.51997],[-108.24037,41.52037],[-108.22118,41.47193],[-108.20094,41.46613],[-108.21222,41.43955],[-108.20502,41.41228],[-108.22185,41.41161],[-108.22758,41.40107],[-108.24564,41.39423],[-108.28008,41.39766],[-108.29188,41.37366],[-108.30736,41.36994],[-108.30227,41.36145],[-108.31507,41.34543],[-108.30782,41.33652],[-108.33777,41.30843],[-108.35919,41.3035],[-108.36352,41.29797],[-108.35773,41.29341],[-108.39394,41.26575],[-108.37539,41.24251],[-108.38178,41.23347],[-108.374,41.22078],[-108.38845,41.20532],[-108.3857,41.19315],[-108.34051,41.17963],[-108.31056,41.17914],[-108.31254,41.1947],[-108.30199,41.20485],[-108.29073,41.19541],[-108.27336,41.2003],[-108.26473,41.19496],[-108.3639,41.11413],[-108.36892,41.09751],[-108.35431,41.07344],[-108.35543,41.05942],[-108.36647,41.05209],[-108.3433,41.05437],[-108.33408,41.04598],[-108.38956,41.03896],[-108.40005,41.02415],[-108.38802,41.01388],[-108.40773,41.00921],[-108.40426,40.99759],[-108.41728,40.99242],[-108.41517,40.95426],[-108.42669,40.93802],[-108.41307,40.92593],[-108.42299,40.90236],[-108.4708,40.86909],[-108.50624,40.85694],[-108.51271,40.83931],[-108.52589,40.83718],[-108.54409,40.84749],[-108.57863,40.83919],[-108.5828,40.81621],[-108.61146,40.80836],[-108.61194,40.78963],[-108.62831,40.78133],[-108.62003,40.76629],[-108.62742,40.75487],[-108.60963,40.73847],[-108.57485,40.73151],[-108.54835,40.7129],[-108.56013,40.69359],[-108.53809,40.67069],[-108.54152,40.65382],[-108.55121,40.65176],[-108.54951,40.61874],[-108.56884,40.60669],[-108.58294,40.60708],[-108.58622,40.58288],[-108.62894,40.55338],[-108.65652,40.56443],[-108.68618,40.56336],[-108.70632,40.57885],[-108.7283,40.57517],[-108.74566,40.58508],[-108.74604,40.59286],[-108.76308,40.59107],[-108.77549,40.60071],[-108.81251,40.58996],[-108.83044,40.60495],[-108.84809,40.59995],[-108.85645,40.61024],[-108.87499,40.60697],[-108.89413,40.58386],[-108.92803,40.5741],[-108.92554,40.56704],[-108.94792,40.54489],[-108.97788,40.53894],[-108.9849,40.52791],[-108.97406,40.52627],[-108.9783,40.50532],[-108.99622,40.49044],[-109.02354,40.48336],[-109.03862,40.46614],[-109.04114,40.44841],[-109.01857,40.43109],[-109.03,40.41753],[-109.02437,40.40314],[-109.03125,40.39397],[-109.01983,40.38134],[-109.02122,40.37107],[-108.94874,40.35078],[-108.94199,40.34222],[-108.94835,40.32828],[-108.90476,40.30723],[-108.92339,40.29904],[-108.94909,40.30145],[-108.98069,40.28765],[-109.0093,40.24587],[-109.04911,40.23306],[-109.04795,40.21846],[-109.06042,40.21376],[-109.06955,40.19582],[-109.0877,40.20863],[-109.11859,40.19109],[-109.21343,40.22007],[-109.26707,40.21705],[-109.27212,40.20774],[-109.33979,40.18199],[-109.36742,40.18353],[-109.40558,40.17149],[-109.42745,40.17934],[-109.47599,40.16798],[-109.48225,40.14811],[-109.50977,40.12965],[-109.52371,40.10501],[-109.56404,40.10139],[-109.59097,40.09039],[-109.59962,40.09937],[-109.62317,40.09938],[-109.67852,40.0626],[-109.63757,40.04136],[-109.63659,40.01874],[-109.61969,40.00941],[-109.60681,39.97223],[-109.58778,39.95963],[-109.61144,39.92709],[-109.60282,39.88946],[-109.60548,39.86078],[-109.59055,39.81764],[-109.59384,39.80087],[-109.5867,39.79423],[-109.5923,39.76967],[-109.49855,39.73748],[-109.50124,39.7247],[-109.47603,39.70696],[-109.43107,39.69537],[-109.41464,39.66029],[-109.43451,39.62261],[-109.41547,39.60529],[-109.40851,39.5782],[-109.36039,39.54938],[-109.35797,39.52341],[-109.34502,39.50275],[-109.31335,39.48556],[-109.29657,39.4613],[-109.27583,39.45722],[-109.26191,39.44402],[-109.22268,39.44073],[-109.20894,39.45094],[-109.18598,39.45369],[-109.16584,39.44272],[-109.12866,39.45896],[-109.1235,39.45311],[-109.10954,39.45679],[-109.08769,39.49178],[-109.07691,39.48943],[-109.07258,39.49974],[-109.05193,39.49738],[-109.03703,39.51534],[-109.0262,39.51554],[-109.00853,39.53457],[-108.99503,39.56933],[-108.95339,39.58243],[-108.94166,39.60145],[-108.92122,39.59296],[-108.90662,39.62155],[-108.88525,39.62165],[-108.87994,39.6285],[-108.87285,39.61687],[-108.85286,39.62107],[-108.83458,39.60952],[-108.82497,39.61879],[-108.81102,39.59731],[-108.77169,39.60676],[-108.73664,39.59371],[-108.71664,39.60445],[-108.68029,39.60084],[-108.65479,39.62437],[-108.65254,39.65911],[-108.6293,39.65647],[-108.53951,39.69775],[-108.49541,39.68818],[-108.47368,39.69851],[-108.44628,39.68059],[-108.41055,39.68132],[-108.40226,39.66959],[-108.39528,39.67335],[-108.38071,39.66357],[-108.34708,39.65889],[-108.33836,39.64703],[-108.3171,39.64921],[-108.31125,39.63173],[-108.30386,39.63425],[-108.29329,39.62328],[-108.27039,39.64944],[-108.22576,39.65948],[-108.22516,39.65228],[-108.21463,39.65761],[-108.21133,39.64908],[-108.19799,39.64618],[-108.16564,39.65553],[-108.15453,39.65122],[-108.13967,39.6708],[-108.12272,39.67705],[-108.1054,39.66502],[-108.07325,39.67794],[-108.04673,39.65307],[-108.0207,39.66529],[-107.99565,39.64439],[-107.95129,39.64822],[-107.92618,39.65712],[-107.94671,39.6994],[-107.92384,39.70781],[-107.90359,39.74033],[-107.88098,39.7578],[-107.85256,39.76791],[-107.84823,39.78025],[-107.81291,39.77628],[-107.81485,39.7924],[-107.80806,39.79603],[-107.79247,39.78782],[-107.76654,39.7929],[-107.74387,39.78701],[-107.7411,39.80273],[-107.7015,39.81462],[-107.6995,39.82339],[-107.68083,39.80559],[-107.6652,39.81415],[-107.64986,39.80435],[-107.64033,39.8141],[-107.6325,39.80235],[-107.62684,39.80814],[-107.6151,39.79956],[-107.58571,39.8121],[-107.56935,39.84226],[-107.55057,39.84095],[-107.54492,39.83205],[-107.51153,39.83067],[-107.5034,39.84043],[-107.48866,39.84042],[-107.46902,39.81198],[-107.42039,39.80678],[-107.42731,39.7552],[-107.41001,39.74242],[-107.36601,39.75529],[-107.33906,39.78229],[-107.32941,39.77533],[-107.2881,39.7745],[-107.26659,39.78393],[-107.26197,39.79823],[-107.28498,39.79838],[-107.29127,39.81158],[-107.28354,39.82227],[-107.30338,39.82858],[-107.3042,39.83974],[-107.27568,39.85013],[-107.28691,39.87187],[-107.25673,39.87441],[-107.25871,39.88627],[-107.23452,39.90455],[-107.20956,39.89911],[-107.18087,39.90885],[-107.17455,39.91951],[-107.18492,39.92802],[-107.1721,39.95041],[-107.17112,39.97009],[-107.13722,39.97488],[-107.12877,40.00246],[-107.08341,40.01495],[-107.06508,40.00907],[-107.0569,39.99547],[-107.04388,40.02303],[-107.02063,40.03009],[-107.01298,40.04705],[-106.98603,40.07114],[-106.96734,40.06908],[-106.94425,40.07854],[-106.84698,40.05888],[-106.82333,40.06301],[-106.81812,40.0809],[-106.79814,40.09602],[-106.8007,40.12311],[-106.78575,40.13781],[-106.74761,40.12973],[-106.74121,40.11943],[-106.71725,40.11877],[-106.70897,40.10193],[-106.69422,40.10346],[-106.65958,40.13698],[-106.68059,40.15601],[-106.67499,40.16349],[-106.65835,40.15987],[-106.62593,40.17184],[-106.64008,40.1893],[-106.61805,40.19693],[-106.61849,40.20258],[-106.65725,40.22347],[-106.646,40.23097],[-106.60964,40.22424],[-106.58963,40.24281],[-106.60987,40.25558],[-106.6158,40.2773],[-106.65228,40.28984],[-106.66331,40.30097],[-106.6763,40.29818],[-106.68769,40.31565],[-106.65385,40.33659],[-106.6445,40.35004],[-106.65451,40.3682],[-106.63378,40.38463],[-106.64099,40.40232],[-106.65618,40.40876],[-106.6447,40.41153],[-106.65116,40.42139],[-106.6401,40.43292],[-106.65918,40.45883],[-106.65432,40.46761],[-106.66709,40.47259],[-106.6532,40.49382],[-106.65581,40.509],[-106.67388,40.52305],[-106.67048,40.53556],[-106.6975,40.55332],[-106.69228,40.56259],[-106.70232,40.57799],[-106.69419,40.59582],[-106.70627,40.61566],[-106.70369,40.62782],[-106.68686,40.63459],[-106.68017,40.64804],[-106.69227,40.65883],[-106.681,40.67553],[-106.68729,40.68292],[-106.66833,40.69572],[-106.66978,40.72899],[-106.67655,40.7368],[-106.66318,40.74362],[-106.66152,40.75368],[-106.66984,40.7618],[-106.63714,40.78956],[-106.63565,40.81161],[-106.66397,40.82832],[-106.66218,40.84298],[-106.65395,40.84565],[-106.6797,40.86981],[-106.68561,40.88532],[-106.73894,40.87123],[-106.74667,40.88224],[-106.74083,40.88988],[-106.76999,40.8966],[-106.7694,40.90424],[-106.80941,40.89969],[-106.80606,40.90631],[-106.82486,40.93204],[-106.83004,40.92411],[-106.85222,40.92517],[-106.87323,40.9742],[-106.85052,40.99038],[-106.86147,40.99662],[-106.85699,41.00413],[-106.87644,41.0045],[-106.89558,41.01804],[-106.92193,41.01276],[-106.93857,41.02081],[-106.91855,41.05893],[-106.88396,41.07467],[-106.90464,41.09176],[-106.95388,41.09642],[-106.96951,41.11632],[-106.97995,41.10964],[-107.01339,41.11729],[-106.97501,41.14861],[-106.98194,41.16858],[-107.04739,41.18897],[-107.06663,41.20323],[-107.08834,41.19967],[-107.1122,41.22634],[-107.12576,41.2257],[-107.1133,41.24832],[-107.14366,41.29008],[-107.16319,41.29757],[-107.13493,41.32862],[-107.16583,41.33364],[-107.15998,41.35789],[-107.16591,41.3658],[-107.18715,41.3652],[-107.21287,41.37725],[-107.20555,41.38613],[-107.21532,41.40393],[-107.24842,41.39801],[-107.28598,41.3751],[-107.30707,41.39091],[-107.34045,41.39977],[-107.33548,41.42026],[-107.34812,41.43579],[-107.30138,41.46685],[-107.32732,41.48175],[-107.31059,41.5159],[-107.32042,41.5339],[-107.35562,41.54438],[-107.40506,41.53294],[-107.42233,41.55197],[-107.43791,41.55267],[-107.48178,41.52805],[-107.50568,41.5427],[-107.51258,41.55968],[-107.53108,41.54907],[-107.54264,41.5282],[-107.57634,41.51253],[-107.58918,41.53813],[-107.62422,41.52069],[-107.63338,41.53485],[-107.66611,41.52336],[-107.67884,41.54074],[-107.72578,41.54942],[-107.72815,41.56699],[-107.77395,41.54686],[-107.79086,41.54704],[-107.84597,41.50655],[-107.87095,41.51064],[-107.88137,41.48633],[-107.89123,41.4833],[-107.93269,41.51249],[-107.95777,41.55046],[-107.96145,41.57153],[-108.01395,41.63017],[-108.07814,41.63542]]]}},{"type":"Feature","properties":{"huc6":"140600","name":"Lower Green","states":"CO,UT"},"geometry":{"type":"Polygon","coordinates":[[[-110.24784,40.83293],[-110.29477,40.83312],[-110.32029,40.82047],[-110.34314,40.82304],[-110.35482,40.8005],[-110.37439,40.7881],[-110.4108,40.78428],[-110.42424,40.79226],[-110.43259,40.77848],[-110.45715,40.78322],[-110.47255,40.77178],[-110.48714,40.78021],[-110.49986,40.76763],[-110.52367,40.76144],[-110.54705,40.77366],[-110.56104,40.75828],[-110.6071,40.75722],[-110.62517,40.76961],[-110.65662,40.74028],[-110.69059,40.74149],[-110.71323,40.75282],[-110.7214,40.74544],[-110.751,40.74757],[-110.80655,40.71163],[-110.8236,40.71047],[-110.84753,40.72536],[-110.89149,40.72841],[-110.88542,40.71578],[-110.90322,40.70656],[-110.90505,40.69399],[-110.89166,40.68052],[-110.90708,40.67476],[-110.91459,40.63986],[-110.94103,40.62877],[-110.93337,40.58628],[-110.9542,40.56805],[-110.97813,40.57207],[-110.9258,40.53701],[-110.9201,40.52082],[-110.95051,40.50393],[-110.97011,40.51737],[-110.99369,40.51509],[-110.99643,40.49989],[-111.02911,40.49041],[-111.02991,40.47661],[-111.03994,40.47325],[-111.09498,40.46239],[-111.10864,40.46797],[-111.14132,40.46282],[-111.18492,40.43847],[-111.17409,40.41442],[-111.18113,40.4082],[-111.20233,40.40758],[-111.22374,40.41869],[-111.23986,40.40598],[-111.24374,40.33564],[-111.25381,40.32413],[-111.24689,40.30442],[-111.25141,40.29783],[-111.27761,40.29788],[-111.29731,40.3103],[-111.31503,40.28755],[-111.2649,40.24239],[-111.27372,40.23595],[-111.27192,40.21907],[-111.22525,40.16646],[-111.23131,40.1479],[-111.22151,40.12469],[-111.24161,40.09173],[-111.23586,40.06967],[-111.24914,40.05572],[-111.23163,40.03568],[-111.20414,40.05081],[-111.19804,40.03163],[-111.17167,40.0107],[-111.16773,39.99058],[-111.14306,39.98696],[-111.11889,39.96773],[-111.1293,39.9472],[-111.0827,39.9394],[-111.08316,39.92652],[-111.11887,39.89553],[-111.15004,39.89273],[-111.14814,39.86638],[-111.15692,39.84156],[-111.1735,39.83],[-111.18113,39.79404],[-111.21573,39.80656],[-111.23822,39.82701],[-111.28824,39.83545],[-111.30233,39.85458],[-111.31736,39.8586],[-111.33395,39.84533],[-111.33313,39.8374],[-111.35718,39.83163],[-111.35883,39.78188],[-111.32271,39.76173],[-111.32149,39.7513],[-111.33666,39.73879],[-111.32383,39.71604],[-111.33011,39.70038],[-111.31336,39.68931],[-111.31278,39.6775],[-111.32924,39.66469],[-111.33114,39.64104],[-111.32918,39.62985],[-111.31048,39.61714],[-111.31419,39.60664],[-111.30676,39.59684],[-111.31682,39.57912],[-111.30481,39.56749],[-111.30883,39.56067],[-111.29654,39.53775],[-111.3018,39.51043],[-111.3251,39.48108],[-111.32034,39.45675],[-111.3596,39.43546],[-111.35875,39.42416],[-111.37486,39.41055],[-111.37101,39.40058],[-111.38345,39.39619],[-111.38451,39.38824],[-111.41165,39.36906],[-111.43247,39.3687],[-111.44408,39.35128],[-111.45214,39.3323],[-111.44081,39.31963],[-111.45044,39.30866],[-111.44142,39.29903],[-111.4485,39.28928],[-111.445,39.25515],[-111.45736,39.24028],[-111.46764,39.24828],[-111.4908,39.17666],[-111.48628,39.14252],[-111.46854,39.11335],[-111.45793,39.10916],[-111.45269,39.11555],[-111.37994,39.12362],[-111.28762,39.05106],[-111.24785,39.03788],[-111.23391,39.04627],[-111.21807,39.04356],[-111.20936,39.02645],[-111.21455,39.00994],[-111.19325,38.98436],[-111.18956,38.96376],[-111.15875,38.94681],[-111.14171,38.91331],[-111.12476,38.898],[-111.11029,38.9172],[-111.05085,38.9003],[-111.00341,38.9066],[-110.91427,38.8643],[-110.91638,38.85743],[-110.89604,38.84704],[-110.87231,38.83932],[-110.85391,38.84265],[-110.8213,38.81996],[-110.80911,38.82963],[-110.79201,38.82504],[-110.7887,38.80544],[-110.74799,38.77552],[-110.74294,38.75807],[-110.74976,38.74168],[-110.69545,38.70855],[-110.67647,38.67105],[-110.65809,38.65968],[-110.66967,38.61863],[-110.62698,38.59927],[-110.5994,38.59723],[-110.57812,38.56711],[-110.58278,38.55687],[-110.5508,38.52193],[-110.4926,38.53663],[-110.49001,38.51587],[-110.46169,38.52238],[-110.45417,38.50777],[-110.44367,38.5058],[-110.4487,38.49759],[-110.44236,38.48866],[-110.42281,38.49003],[-110.39809,38.5067],[-110.38176,38.50017],[-110.36644,38.50977],[-110.36093,38.49954],[-110.3476,38.49881],[-110.33982,38.47749],[-110.35542,38.46704],[-110.35662,38.44198],[-110.33558,38.42099],[-110.35775,38.38151],[-110.34771,38.36109],[-110.31366,38.37895],[-110.30128,38.37486],[-110.30153,38.31966],[-110.27862,38.29483],[-110.27802,38.28053],[-110.26,38.26927],[-110.21954,38.2629],[-110.21322,38.25202],[-110.17394,38.25492],[-110.15224,38.23945],[-110.14838,38.1846],[-110.13458,38.16843],[-110.12672,38.10425],[-110.11701,38.10166],[-110.10503,38.13269],[-110.06803,38.14777],[-110.0502,38.16707],[-110.02906,38.16418],[-109.97739,38.1844],[-109.95821,38.17853],[-109.92543,38.18829],[-109.91452,38.17622],[-109.89203,38.18508],[-109.88603,38.19039],[-109.8924,38.19549],[-109.8689,38.20971],[-109.86191,38.27358],[-109.87509,38.29031],[-109.85271,38.32037],[-109.86787,38.36022],[-109.86581,38.38874],[-109.83198,38.40518],[-109.81729,38.42281],[-109.8252,38.43582],[-109.81583,38.44109],[-109.82157,38.45837],[-109.80425,38.47919],[-109.80824,38.51069],[-109.78995,38.55387],[-109.79248,38.57993],[-109.80797,38.59057],[-109.80292,38.63387],[-109.85159,38.67067],[-109.82958,38.68287],[-109.82925,38.69233],[-109.84364,38.70378],[-109.82694,38.73967],[-109.78958,38.76707],[-109.78702,38.78283],[-109.7659,38.79474],[-109.77326,38.80761],[-109.73178,38.82641],[-109.69231,38.80528],[-109.6694,38.8176],[-109.71994,38.85203],[-109.70816,38.86459],[-109.69751,38.86435],[-109.69464,38.88635],[-109.68336,38.89385],[-109.67526,38.91998],[-109.70169,38.97741],[-109.68591,38.9935],[-109.68886,39.01464],[-109.67656,39.04036],[-109.68794,39.06488],[-109.68004,39.0786],[-109.68906,39.11046],[-109.72203,39.14714],[-109.71132,39.15798],[-109.657,39.17256],[-109.65322,39.18224],[-109.62942,39.17602],[-109.62387,39.19149],[-109.58645,39.22595],[-109.5549,39.23807],[-109.5589,39.25945],[-109.5467,39.29861],[-109.52183,39.30971],[-109.51376,39.33661],[-109.49942,39.33767],[-109.474,39.3609],[-109.45708,39.36143],[-109.44501,39.38971],[-109.42884,39.3969],[-109.42414,39.40869],[-109.39879,39.41944],[-109.39253,39.4126],[-109.36014,39.41478],[-109.34127,39.42356],[-109.33401,39.41658],[-109.2745,39.45265],[-109.29657,39.4613],[-109.31335,39.48556],[-109.33581,39.49286],[-109.35797,39.52341],[-109.36039,39.54938],[-109.40851,39.5782],[-109.41547,39.60529],[-109.43451,39.62261],[-109.41464,39.66029],[-109.43107,39.69537],[-109.47603,39.70696],[-109.50124,39.7247],[-109.49855,39.73748],[-109.5923,39.76967],[-109.5867,39.79423],[-109.59384,39.80087],[-109.59055,39.81764],[-109.60548,39.86078],[-109.60282,39.88946],[-109.61144,39.92709],[-109.58778,39.95963],[-109.60681,39.97223],[-109.61969,40.00941],[-109.63659,40.01874],[-109.63757,40.04136],[-109.67852,40.0626],[-109.62317,40.09938],[-109.59962,40.09937],[-109.59097,40.09039],[-109.56404,40.10139],[-109.52371,40.10501],[-109.50977,40.12965],[-109.48225,40.14811],[-109.47599,40.16798],[-109.42745,40.17934],[-109.40558,40.17149],[-109.36742,40.18353],[-109.33979,40.18199],[-109.27212,40.20774],[-109.26707,40.21705],[-109.21343,40.22007],[-109.11859,40.19109],[-109.0877,40.20863],[-109.06955,40.19582],[-109.06042,40.21376],[-109.04795,40.21846],[-109.04911,40.23306],[-109.0093,40.24587],[-108.98069,40.28765],[-108.94909,40.30145],[-108.92339,40.29904],[-108.90476,40.30723],[-108.94835,40.32828],[-108.94199,40.34222],[-108.94874,40.35078],[-109.02122,40.37107],[-109.01983,40.38134],[-109.03125,40.39397],[-109.02437,40.40314],[-109.03,40.41753],[-109.01857,40.43109],[-109.04114,40.44841],[-109.03862,40.46614],[-109.00953,40.49207],[-108.99622,40.49044],[-108.98408,40.49974],[-108.97406,40.52627],[-108.98632,40.5281],[-108.99652,40.57559],[-109.01688,40.58773],[-109.01278,40.6105],[-109.02518,40.61841],[-109.03262,40.63956],[-109.08877,40.65497],[-109.1059,40.65361],[-109.11822,40.63965],[-109.14379,40.6712],[-109.17992,40.66938],[-109.18801,40.68009],[-109.20756,40.67763],[-109.21267,40.68843],[-109.22324,40.67965],[-109.2452,40.6844],[-109.25428,40.69059],[-109.25882,40.73252],[-109.28589,40.73932],[-109.29053,40.72783],[-109.29823,40.73172],[-109.32782,40.71178],[-109.37343,40.71456],[-109.37738,40.74559],[-109.39517,40.7509],[-109.40902,40.79124],[-109.43395,40.77746],[-109.44063,40.76524],[-109.43653,40.75755],[-109.46874,40.7557],[-109.47307,40.74386],[-109.48439,40.73974],[-109.5164,40.75473],[-109.51335,40.8107],[-109.52846,40.8276],[-109.57159,40.81353],[-109.58163,40.82534],[-109.60001,40.81551],[-109.63202,40.81588],[-109.65319,40.7996],[-109.67663,40.79519],[-109.70207,40.80357],[-109.73203,40.79471],[-109.75287,40.80285],[-109.7649,40.78254],[-109.81522,40.77965],[-109.83482,40.7682],[-109.86985,40.76389],[-109.88305,40.77478],[-109.8931,40.77273],[-109.8969,40.78205],[-109.91302,40.78172],[-109.93194,40.79638],[-109.97109,40.81006],[-109.98804,40.80761],[-109.99365,40.81514],[-110.04312,40.82058],[-110.05226,40.81233],[-110.10298,40.80796],[-110.24784,40.83293]]]}},{"type":"Feature","properties":{"huc6":"140700","name":"Upper Colorado-Dirty Devil","states":"AZ,UT"},"geometry":{"type":"Polygon","coordinates":[[[-111.47272,39.12315],[-111.49872,39.11914],[-111.50427,39.0724],[-111.49802,39.06692],[-111.51634,39.05667],[-111.50856,39.04796],[-111.51179,39.02946],[-111.50311,39.00244],[-111.45053,38.99713],[-111.44093,38.96235],[-111.44159,38.95595],[-111.47343,38.94282],[-111.47372,38.9333],[-111.49861,38.90911],[-111.49232,38.90049],[-111.50055,38.88972],[-111.47032,38.86994],[-111.46928,38.85819],[-111.48947,38.82522],[-111.47574,38.79362],[-111.49115,38.76847],[-111.55065,38.75896],[-111.58382,38.73127],[-111.62108,38.74525],[-111.64786,38.71178],[-111.66776,38.71986],[-111.68966,38.7106],[-111.70305,38.68243],[-111.70324,38.65807],[-111.74079,38.61005],[-111.73861,38.58603],[-111.74694,38.58168],[-111.74629,38.56816],[-111.7718,38.55821],[-111.76259,38.52587],[-111.78422,38.51237],[-111.79587,38.51474],[-111.79944,38.50103],[-111.81799,38.48449],[-111.8098,38.47595],[-111.83794,38.42896],[-111.8631,38.40344],[-111.86004,38.37955],[-111.88221,38.36033],[-111.88133,38.34589],[-111.89505,38.32322],[-111.89532,38.31315],[-111.88875,38.31175],[-111.89316,38.29061],[-111.8584,38.2357],[-111.85,38.20719],[-111.88364,38.17524],[-111.88034,38.16314],[-111.89261,38.13311],[-111.8841,38.12903],[-111.86445,38.13989],[-111.84871,38.12403],[-111.83429,38.12854],[-111.82785,38.10767],[-111.8039,38.11256],[-111.7964,38.08919],[-111.77019,38.07766],[-111.71416,38.06916],[-111.72055,38.06068],[-111.71181,38.05645],[-111.72376,38.04684],[-111.71375,38.0367],[-111.71608,38.02119],[-111.73798,38.00021],[-111.72806,37.99032],[-111.72794,37.96383],[-111.74651,37.93883],[-111.77539,37.94949],[-111.79229,37.96973],[-111.81423,37.94978],[-111.86313,37.94494],[-111.86888,37.92896],[-111.88073,37.92708],[-111.87492,37.92065],[-111.89186,37.91465],[-111.87337,37.87935],[-111.88192,37.81334],[-111.8921,37.80007],[-111.87914,37.76607],[-111.87087,37.76272],[-111.87577,37.75424],[-111.86405,37.74873],[-111.8747,37.72885],[-111.90431,37.7309],[-111.93786,37.7149],[-111.95328,37.72335],[-111.96223,37.71199],[-111.97819,37.71584],[-111.98963,37.70426],[-111.99176,37.71278],[-112.00777,37.71276],[-112.03484,37.73861],[-112.05271,37.73553],[-112.07381,37.71362],[-112.0869,37.71054],[-112.09156,37.69175],[-112.11221,37.69948],[-112.14159,37.67935],[-112.13914,37.65872],[-112.14776,37.64521],[-112.16343,37.64243],[-112.16294,37.62822],[-112.17103,37.62068],[-112.15364,37.5971],[-112.17499,37.59729],[-112.18268,37.58514],[-112.19371,37.59427],[-112.23595,37.58511],[-112.23193,37.57439],[-112.26549,37.51427],[-112.24058,37.47422],[-112.26291,37.46164],[-112.27013,37.4407],[-112.31032,37.44585],[-112.32865,37.40984],[-112.31131,37.39483],[-112.31561,37.38309],[-112.30086,37.37968],[-112.29536,37.36826],[-112.29814,37.34547],[-112.31635,37.32906],[-112.28009,37.31528],[-112.28782,37.29035],[-112.27529,37.27167],[-112.27718,37.26133],[-112.23929,37.24263],[-112.23163,37.22547],[-112.23959,37.21471],[-112.21875,37.20188],[-112.21685,37.18813],[-112.20439,37.18138],[-112.20283,37.16464],[-112.22443,37.13512],[-112.2222,37.11231],[-112.19649,37.10403],[-112.18535,37.07914],[-112.11844,37.04493],[-112.10405,37.02301],[-112.1005,37.01329],[-112.11574,37.01175],[-112.12087,36.99522],[-112.11204,36.95972],[-112.1288,36.9406],[-112.12537,36.91543],[-112.11767,36.90893],[-112.11655,36.86648],[-112.05276,36.84353],[-112.01896,36.76951],[-111.9968,36.76098],[-111.9346,36.75947],[-111.9325,36.76834],[-111.92237,36.76874],[-111.90792,36.76215],[-111.90149,36.74511],[-111.8695,36.73903],[-111.84594,36.71867],[-111.83479,36.71806],[-111.8122,36.72598],[-111.78965,36.7702],[-111.74177,36.82127],[-111.71378,36.83211],[-111.68984,36.85461],[-111.67638,36.85228],[-111.67206,36.86956],[-111.65312,36.88805],[-111.60525,36.8589],[-111.58803,36.86409],[-111.59557,36.85514],[-111.58636,36.81761],[-111.59358,36.76476],[-111.60732,36.74579],[-111.61808,36.70467],[-111.63305,36.6979],[-111.62546,36.69541],[-111.61795,36.66178],[-111.60265,36.65982],[-111.58085,36.63105],[-111.56862,36.63543],[-111.55648,36.6249],[-111.56267,36.60563],[-111.57967,36.58957],[-111.56242,36.58731],[-111.55883,36.52967],[-111.54902,36.52884],[-111.50763,36.58939],[-111.47798,36.6079],[-111.47659,36.62093],[-111.4499,36.62945],[-111.43039,36.62606],[-111.41712,36.60019],[-111.39686,36.59575],[-111.3672,36.52047],[-111.34197,36.54074],[-111.32306,36.50091],[-111.30837,36.53019],[-111.30174,36.53067],[-111.29868,36.51742],[-111.28626,36.51895],[-111.28495,36.53862],[-111.26761,36.52955],[-111.25636,36.54159],[-111.20818,36.53229],[-111.18286,36.54207],[-111.17215,36.53434],[-111.14513,36.54988],[-111.14766,36.52522],[-111.12013,36.52674],[-111.09661,36.50362],[-111.07183,36.49909],[-111.04353,36.50624],[-111.00299,36.53499],[-110.99383,36.52647],[-110.96378,36.5379],[-110.93471,36.56569],[-110.93,36.5889],[-110.87272,36.58419],[-110.84201,36.60469],[-110.80902,36.60192],[-110.79701,36.64413],[-110.73746,36.68383],[-110.72687,36.68321],[-110.72575,36.69559],[-110.69385,36.72532],[-110.67527,36.7589],[-110.67254,36.77323],[-110.70555,36.77471],[-110.7171,36.78522],[-110.71567,36.80913],[-110.72896,36.81748],[-110.73583,36.83681],[-110.72267,36.85059],[-110.73511,36.86439],[-110.75275,36.8692],[-110.77191,36.88669],[-110.78667,36.88016],[-110.80559,36.89674],[-110.8432,36.89652],[-110.849,36.91237],[-110.87662,36.93132],[-110.85315,36.95476],[-110.83495,36.99483],[-110.83828,37.00552],[-110.86879,37.02963],[-110.88037,37.07775],[-110.90262,37.09036],[-110.8871,37.10502],[-110.8926,37.14262],[-110.88509,37.1622],[-110.89523,37.18271],[-110.88966,37.19099],[-110.85461,37.21701],[-110.82633,37.20706],[-110.82212,37.21728],[-110.80168,37.22349],[-110.79689,37.24721],[-110.78896,37.25224],[-110.75077,37.24272],[-110.65725,37.31286],[-110.6358,37.33933],[-110.60972,37.34007],[-110.58718,37.31788],[-110.56009,37.33525],[-110.53677,37.32829],[-110.52077,37.33388],[-110.46358,37.37325],[-110.44922,37.40989],[-110.42918,37.43282],[-110.39551,37.45757],[-110.38674,37.45621],[-110.36213,37.4834],[-110.34102,37.47607],[-110.33118,37.45903],[-110.30468,37.4643],[-110.28401,37.49321],[-110.27537,37.4928],[-110.2641,37.48025],[-110.23752,37.47612],[-110.21767,37.46028],[-110.20976,37.47453],[-110.19699,37.47882],[-110.20194,37.49167],[-110.19424,37.50452],[-110.16845,37.50006],[-110.16065,37.51267],[-110.14126,37.5108],[-110.11376,37.52693],[-110.09615,37.52487],[-110.05079,37.55602],[-110.00222,37.55757],[-109.97245,37.53998],[-109.94138,37.54031],[-109.90955,37.59818],[-109.84827,37.63225],[-109.85571,37.64486],[-109.81735,37.67803],[-109.80926,37.69839],[-109.81437,37.70667],[-109.8035,37.71104],[-109.80709,37.72118],[-109.78077,37.72434],[-109.7573,37.74048],[-109.77553,37.78284],[-109.78701,37.79079],[-109.77074,37.81278],[-109.79161,37.83198],[-109.78043,37.84462],[-109.78042,37.89925],[-109.79228,37.90643],[-109.78911,37.92169],[-109.80025,37.94635],[-109.81033,37.9477],[-109.79787,37.96093],[-109.81959,37.97402],[-109.80493,37.99069],[-109.80463,38.00318],[-109.81093,38.00969],[-109.80776,38.02204],[-109.81633,38.0257],[-109.80875,38.03779],[-109.81569,38.04476],[-109.81199,38.05732],[-109.82268,38.06614],[-109.81779,38.07958],[-109.83695,38.0871],[-109.84778,38.11946],[-109.88053,38.12546],[-109.87008,38.14405],[-109.88069,38.14924],[-109.87443,38.17131],[-109.88036,38.19022],[-109.91452,38.17622],[-109.92543,38.18829],[-109.95821,38.17853],[-109.97739,38.1844],[-110.02906,38.16418],[-110.0502,38.16707],[-110.06803,38.14777],[-110.10503,38.13269],[-110.11442,38.10338],[-110.12672,38.10425],[-110.13458,38.16843],[-110.14838,38.1846],[-110.15224,38.23945],[-110.17394,38.25492],[-110.21322,38.25202],[-110.21954,38.2629],[-110.26,38.26927],[-110.27802,38.28053],[-110.27862,38.29483],[-110.30153,38.31966],[-110.30128,38.37486],[-110.31366,38.37895],[-110.34525,38.35988],[-110.35224,38.36895],[-110.35775,38.38151],[-110.35183,38.40053],[-110.33558,38.42099],[-110.35662,38.44198],[-110.35542,38.46704],[-110.33982,38.47749],[-110.3476,38.49881],[-110.36093,38.49954],[-110.36644,38.50977],[-110.38176,38.50017],[-110.39809,38.5067],[-110.42281,38.49003],[-110.44236,38.48866],[-110.4487,38.49759],[-110.44367,38.5058],[-110.45417,38.50777],[-110.46169,38.52238],[-110.49001,38.51587],[-110.4926,38.53663],[-110.5508,38.52193],[-110.58278,38.55687],[-110.57812,38.56711],[-110.5994,38.59723],[-110.62698,38.59927],[-110.66967,38.61863],[-110.65809,38.65968],[-110.67647,38.67105],[-110.69545,38.70855],[-110.74976,38.74168],[-110.74294,38.75807],[-110.74799,38.77552],[-110.7887,38.80544],[-110.79201,38.82504],[-110.80911,38.82963],[-110.8213,38.81996],[-110.85391,38.84265],[-110.87231,38.83932],[-110.89604,38.84704],[-110.91638,38.85743],[-110.91427,38.8643],[-111.00341,38.9066],[-111.05085,38.9003],[-111.11029,38.9172],[-111.12476,38.898],[-111.14171,38.91331],[-111.15875,38.94681],[-111.18956,38.96376],[-111.19325,38.98436],[-111.21455,39.00994],[-111.20936,39.02645],[-111.21807,39.04356],[-111.23391,39.04627],[-111.24785,39.03788],[-111.28762,39.05106],[-111.37994,39.12362],[-111.45269,39.11555],[-111.45961,39.10913],[-111.47272,39.12315]]]}},{"type":"Feature","properties":{"huc6":"140801","name":"Upper San Juan","states":"AZ,CO,NM"},"geometry":{"type":"Polygon","coordinates":[[[-107.56847,37.96205],[-107.61284,37.93398],[-107.62151,37.9147],[-107.63678,37.92421],[-107.65072,37.90994],[-107.68911,37.90162],[-107.69583,37.89237],[-107.73827,37.90529],[-107.76084,37.87767],[-107.78267,37.86785],[-107.77955,37.84916],[-107.79662,37.82274],[-107.80853,37.8241],[-107.82873,37.81169],[-107.82467,37.79011],[-107.84112,37.77401],[-107.86542,37.77155],[-107.87033,37.76285],[-107.86185,37.75599],[-107.87577,37.73875],[-107.87766,37.71578],[-107.90285,37.71878],[-107.96879,37.69666],[-107.97496,37.68366],[-107.95731,37.6485],[-108.02312,37.59096],[-108.01999,37.55366],[-108.03473,37.53287],[-108.03122,37.50949],[-108.03759,37.50281],[-108.03311,37.46486],[-108.05359,37.43731],[-108.07888,37.43927],[-108.07311,37.45981],[-108.11701,37.49135],[-108.19408,37.49838],[-108.24362,37.46648],[-108.26418,37.46647],[-108.26549,37.4577],[-108.31135,37.41974],[-108.32942,37.41977],[-108.35878,37.43528],[-108.37924,37.4063],[-108.39792,37.39629],[-108.40228,37.3576],[-108.41711,37.3374],[-108.41917,37.31138],[-108.4405,37.30426],[-108.43936,37.2833],[-108.45003,37.2788],[-108.48667,37.27827],[-108.52616,37.26371],[-108.56976,37.2659],[-108.60729,37.2522],[-108.61046,37.24263],[-108.62414,37.24214],[-108.6368,37.25816],[-108.67226,37.27288],[-108.69957,37.26545],[-108.75961,37.26862],[-108.7772,37.28426],[-108.79128,37.2721],[-108.81508,37.2698],[-108.81872,37.26022],[-108.80899,37.24966],[-108.81603,37.23903],[-108.80271,37.23172],[-108.80844,37.21438],[-108.79362,37.1956],[-108.8223,37.17388],[-108.84991,37.11311],[-108.86329,37.09821],[-108.91546,37.08554],[-108.92754,37.05484],[-108.97666,37.01793],[-108.98063,37.01076],[-108.9722,36.99541],[-108.98019,36.98266],[-108.97277,36.97183],[-108.99794,36.98553],[-109.00913,36.97158],[-109.04888,36.95231],[-109.05392,36.93969],[-109.07085,36.93727],[-109.08011,36.92304],[-109.07184,36.90827],[-109.07988,36.87264],[-109.12067,36.83724],[-109.12877,36.79844],[-109.17364,36.79355],[-109.18746,36.77296],[-109.2077,36.77296],[-109.20729,36.74787],[-109.24032,36.72458],[-109.24895,36.72894],[-109.25969,36.72005],[-109.24209,36.69358],[-109.2741,36.64657],[-109.26675,36.63146],[-109.2773,36.58673],[-109.26744,36.58173],[-109.29452,36.55995],[-109.27711,36.53888],[-109.27456,36.52263],[-109.23434,36.49789],[-109.19952,36.50236],[-109.17546,36.49352],[-109.17309,36.47888],[-109.15905,36.4799],[-109.14852,36.46617],[-109.11761,36.4687],[-109.11118,36.4607],[-109.09278,36.45992],[-109.07769,36.43861],[-109.08615,36.4235],[-109.05965,36.41308],[-109.06239,36.39966],[-109.05478,36.39668],[-109.07565,36.36536],[-109.04275,36.3483],[-109.04445,36.32798],[-109.06452,36.31128],[-109.0382,36.31093],[-109.00267,36.32778],[-108.97884,36.3204],[-108.98333,36.30247],[-108.95601,36.28344],[-108.97156,36.25144],[-108.9525,36.25485],[-108.94561,36.24035],[-108.94989,36.23227],[-108.93504,36.22801],[-108.95029,36.21963],[-108.94324,36.21528],[-108.94007,36.19235],[-108.94665,36.18718],[-108.94722,36.16175],[-108.96273,36.14976],[-108.93911,36.12948],[-108.9357,36.11521],[-108.94373,36.10226],[-108.92185,36.09941],[-108.90204,36.11574],[-108.86619,36.10915],[-108.87039,36.09376],[-108.85293,36.08626],[-108.85696,36.06436],[-108.83965,36.05721],[-108.83973,36.03015],[-108.86555,36.00852],[-108.82626,35.98874],[-108.83387,35.97972],[-108.82435,35.95413],[-108.84125,35.94844],[-108.85612,35.92888],[-108.84152,35.92267],[-108.84445,35.90704],[-108.88737,35.90747],[-108.90567,35.89784],[-108.91803,35.86114],[-108.9353,35.8607],[-108.96047,35.83996],[-108.95177,35.8324],[-108.95796,35.78659],[-108.94147,35.77835],[-108.94146,35.76589],[-108.91827,35.74197],[-108.91182,35.69631],[-108.87411,35.69087],[-108.86927,35.68027],[-108.85403,35.67533],[-108.83406,35.67752],[-108.83085,35.66717],[-108.80116,35.66479],[-108.79171,35.6534],[-108.77772,35.66047],[-108.76813,35.64249],[-108.73477,35.63859],[-108.73732,35.62491],[-108.72209,35.6228],[-108.72167,35.60755],[-108.71228,35.59897],[-108.68799,35.60621],[-108.67234,35.65178],[-108.65436,35.67181],[-108.6182,35.67384],[-108.61891,35.68749],[-108.59708,35.69593],[-108.59613,35.70292],[-108.53509,35.70467],[-108.53023,35.68414],[-108.51401,35.69441],[-108.46389,35.70012],[-108.42198,35.67679],[-108.3662,35.68252],[-108.353,35.67404],[-108.36267,35.66193],[-108.35748,35.65485],[-108.33571,35.6446],[-108.30704,35.64622],[-108.27013,35.669],[-108.25463,35.66407],[-108.24133,35.64432],[-108.21657,35.63561],[-108.19724,35.64941],[-108.15144,35.64569],[-108.15374,35.61933],[-108.14128,35.62019],[-108.13497,35.60972],[-108.15921,35.58494],[-108.1176,35.57265],[-108.07703,35.59789],[-108.05405,35.60111],[-108.04752,35.59278],[-108.02442,35.60245],[-108.0072,35.59449],[-108.00557,35.57917],[-107.99003,35.58776],[-107.97684,35.58287],[-107.9846,35.56598],[-107.9742,35.55837],[-107.91881,35.57818],[-107.91376,35.59859],[-107.874,35.60907],[-107.85206,35.6235],[-107.8254,35.66953],[-107.79453,35.68695],[-107.80848,35.69738],[-107.77651,35.71224],[-107.78417,35.72276],[-107.77523,35.75743],[-107.75393,35.75896],[-107.73716,35.76733],[-107.73743,35.77764],[-107.72302,35.78143],[-107.68711,35.77964],[-107.65906,35.79733],[-107.65882,35.80557],[-107.64485,35.803],[-107.61163,35.8175],[-107.6049,35.82764],[-107.59013,35.82486],[-107.56651,35.83951],[-107.53171,35.82465],[-107.50053,35.84084],[-107.47789,35.87406],[-107.48005,35.88348],[-107.43557,35.91397],[-107.4367,35.92072],[-107.40022,35.95187],[-107.39063,35.98622],[-107.38031,35.99636],[-107.39266,36.01603],[-107.35397,36.03278],[-107.3481,36.06006],[-107.33194,36.06771],[-107.27313,36.05901],[-107.25297,36.06093],[-107.25291,36.06733],[-107.2025,36.06131],[-107.1971,36.0674],[-107.15848,36.05728],[-107.11131,36.10237],[-107.06294,36.10722],[-107.04897,36.12258],[-107.05328,36.13458],[-107.0345,36.15991],[-107.03536,36.17382],[-107.02492,36.1895],[-106.99654,36.19342],[-106.98048,36.18702],[-106.95855,36.19918],[-106.94885,36.23725],[-106.95368,36.24365],[-106.96835,36.24074],[-106.97496,36.25136],[-106.96661,36.26007],[-106.97043,36.28225],[-106.95188,36.30482],[-106.95059,36.33781],[-106.95941,36.3424],[-106.96217,36.35842],[-106.98627,36.37057],[-106.98034,36.38336],[-106.98929,36.38614],[-107.00115,36.42277],[-107.01859,36.43439],[-107.00994,36.44861],[-106.98568,36.45607],[-106.98326,36.48155],[-106.95933,36.51455],[-106.97244,36.52594],[-106.97356,36.54781],[-106.98975,36.55744],[-106.97186,36.58583],[-106.98746,36.59961],[-106.98802,36.61021],[-107.00161,36.61479],[-106.99418,36.65231],[-106.99982,36.65864],[-106.96694,36.66971],[-106.9676,36.68569],[-106.94843,36.70399],[-106.95464,36.71708],[-106.94738,36.73641],[-106.92713,36.75661],[-106.94141,36.78818],[-106.93716,36.80456],[-106.89317,36.81453],[-106.89499,36.80847],[-106.8738,36.80482],[-106.8487,36.82282],[-106.82987,36.82541],[-106.78538,36.87033],[-106.77495,36.86388],[-106.75935,36.86706],[-106.72182,36.88912],[-106.71928,36.8978],[-106.70139,36.90113],[-106.70535,36.93722],[-106.7176,36.94063],[-106.71881,36.95528],[-106.73389,36.96042],[-106.72119,36.97238],[-106.71939,36.98551],[-106.69919,36.99045],[-106.68858,37.00563],[-106.69135,37.0393],[-106.64897,37.03083],[-106.62894,37.04044],[-106.64016,37.05398],[-106.62298,37.09818],[-106.62678,37.11632],[-106.61281,37.1355],[-106.58822,37.13835],[-106.59443,37.14979],[-106.59027,37.19392],[-106.60554,37.22153],[-106.63083,37.2207],[-106.63515,37.25693],[-106.68604,37.25919],[-106.69434,37.27248],[-106.68243,37.29591],[-106.66349,37.31085],[-106.66603,37.32091],[-106.69194,37.32404],[-106.7076,37.33622],[-106.69688,37.35059],[-106.69973,37.36928],[-106.68188,37.37554],[-106.67062,37.40181],[-106.6413,37.40777],[-106.65843,37.42791],[-106.70204,37.45139],[-106.7169,37.44182],[-106.73395,37.45932],[-106.75661,37.46454],[-106.77283,37.44979],[-106.79815,37.45679],[-106.80672,37.46627],[-106.80037,37.49272],[-106.81601,37.4991],[-106.84496,37.4994],[-106.85311,37.49215],[-106.8744,37.49961],[-106.88812,37.51694],[-106.87888,37.54439],[-106.88793,37.56479],[-106.94856,37.57084],[-106.96908,37.56524],[-107.00813,37.57369],[-107.01876,37.56277],[-107.04498,37.56029],[-107.04853,37.56998],[-107.07768,37.56891],[-107.09315,37.57389],[-107.09191,37.59586],[-107.10979,37.60762],[-107.1393,37.6022],[-107.14007,37.6244],[-107.15276,37.63701],[-107.1991,37.62568],[-107.20114,37.61068],[-107.23083,37.59523],[-107.25604,37.6163],[-107.25663,37.62802],[-107.27881,37.64091],[-107.27656,37.65552],[-107.29076,37.67119],[-107.27297,37.67962],[-107.26884,37.69598],[-107.30665,37.67736],[-107.37511,37.68763],[-107.3936,37.67868],[-107.39758,37.65314],[-107.4238,37.6503],[-107.44189,37.63242],[-107.46387,37.63014],[-107.49197,37.65174],[-107.504,37.69334],[-107.53732,37.70838],[-107.53613,37.72188],[-107.55896,37.76227],[-107.5548,37.78962],[-107.54561,37.7997],[-107.5298,37.80119],[-107.51833,37.81573],[-107.52306,37.82279],[-107.51625,37.8344],[-107.52243,37.84213],[-107.5181,37.85707],[-107.53674,37.8798],[-107.52037,37.90123],[-107.53656,37.92117],[-107.53272,37.9438],[-107.56847,37.96205]]]}},{"type":"Feature","properties":{"huc6":"140802","name":"Lower San Juan","states":"AZ,CO,NM,UT"},"geometry":{"type":"Polygon","coordinates":[[[-109.3087,37.9811],[-109.33914,37.95763],[-109.38054,37.95572],[-109.47231,37.90514],[-109.47308,37.88738],[-109.49548,37.871],[-109.49444,37.8565],[-109.4738,37.85972],[-109.47445,37.84105],[-109.5033,37.83551],[-109.51198,37.82689],[-109.53421,37.82266],[-109.55849,37.83538],[-109.57031,37.8304],[-109.59206,37.83823],[-109.60751,37.83028],[-109.6221,37.84603],[-109.63904,37.82443],[-109.64366,37.83291],[-109.71999,37.82302],[-109.73784,37.84743],[-109.78961,37.83135],[-109.77074,37.81278],[-109.78701,37.79079],[-109.77553,37.78284],[-109.7573,37.74048],[-109.78077,37.72434],[-109.80709,37.72118],[-109.8035,37.71104],[-109.81437,37.70667],[-109.80926,37.69839],[-109.81735,37.67803],[-109.85571,37.64486],[-109.84827,37.63225],[-109.90955,37.59818],[-109.94138,37.54031],[-109.97245,37.53998],[-110.00222,37.55757],[-110.05079,37.55602],[-110.09615,37.52487],[-110.11376,37.52693],[-110.14126,37.5108],[-110.16065,37.51267],[-110.16845,37.50006],[-110.19424,37.50452],[-110.20194,37.49167],[-110.19699,37.47882],[-110.20976,37.47453],[-110.21767,37.46028],[-110.23752,37.47612],[-110.2641,37.48025],[-110.27537,37.4928],[-110.28401,37.49321],[-110.30468,37.4643],[-110.33118,37.45903],[-110.34102,37.47607],[-110.36213,37.4834],[-110.38674,37.45621],[-110.39551,37.45757],[-110.42918,37.43282],[-110.44922,37.40989],[-110.46358,37.37325],[-110.52077,37.33388],[-110.53677,37.32829],[-110.56009,37.33525],[-110.58718,37.31788],[-110.60972,37.34007],[-110.6358,37.33933],[-110.65725,37.31286],[-110.75077,37.24272],[-110.78896,37.25224],[-110.79689,37.24721],[-110.80168,37.22349],[-110.82212,37.21728],[-110.82633,37.20706],[-110.85917,37.2155],[-110.89523,37.18271],[-110.88509,37.1622],[-110.8926,37.14262],[-110.88631,37.11249],[-110.90262,37.09036],[-110.88037,37.07775],[-110.86879,37.02963],[-110.83828,37.00552],[-110.83495,36.99483],[-110.85315,36.95476],[-110.87662,36.93132],[-110.849,36.91237],[-110.8432,36.89652],[-110.80559,36.89674],[-110.78667,36.88016],[-110.77191,36.88669],[-110.72581,36.85589],[-110.72482,36.84475],[-110.73583,36.83681],[-110.72896,36.81748],[-110.71567,36.80913],[-110.71768,36.78655],[-110.70555,36.77471],[-110.67254,36.77323],[-110.64439,36.79222],[-110.63869,36.77943],[-110.61026,36.77453],[-110.59326,36.79322],[-110.57485,36.79244],[-110.57606,36.7791],[-110.56245,36.77011],[-110.58673,36.74126],[-110.58495,36.73112],[-110.56467,36.71502],[-110.56225,36.70407],[-110.55074,36.70087],[-110.55535,36.68743],[-110.54165,36.68683],[-110.54067,36.67093],[-110.52875,36.67214],[-110.51371,36.65713],[-110.50945,36.61695],[-110.49098,36.58176],[-110.50305,36.55375],[-110.48908,36.54815],[-110.47643,36.55265],[-110.45081,36.61402],[-110.39909,36.65098],[-110.36058,36.64604],[-110.33066,36.66134],[-110.30673,36.64356],[-110.26339,36.65166],[-110.2422,36.62231],[-110.23703,36.59575],[-110.2083,36.58557],[-110.20405,36.57139],[-110.21436,36.5532],[-110.21378,36.52851],[-110.19958,36.5282],[-110.19625,36.51383],[-110.18368,36.51718],[-110.16969,36.4893],[-110.12124,36.46844],[-110.08462,36.47325],[-110.07031,36.45301],[-110.05542,36.45634],[-110.05911,36.46455],[-110.04687,36.45679],[-110.0376,36.46171],[-110.03562,36.48074],[-110.01013,36.46777],[-110.00742,36.45554],[-109.96475,36.44254],[-109.95024,36.42086],[-109.92894,36.4212],[-109.93075,36.39605],[-109.91615,36.38475],[-109.88657,36.38479],[-109.87736,36.3735],[-109.83647,36.37693],[-109.84194,36.36151],[-109.82846,36.34783],[-109.82749,36.31645],[-109.80915,36.29862],[-109.81105,36.26391],[-109.84656,36.23381],[-109.85022,36.20547],[-109.87237,36.18757],[-109.88154,36.1888],[-109.92017,36.15133],[-109.91856,36.13707],[-109.95365,36.11331],[-109.9591,36.09119],[-109.94699,36.04046],[-109.90472,36.02549],[-109.90124,35.9985],[-109.87126,35.95583],[-109.85474,35.88986],[-109.83448,35.87233],[-109.83065,35.85676],[-109.85452,35.85338],[-109.8569,35.82107],[-109.84582,35.81648],[-109.84488,35.80381],[-109.83523,35.80604],[-109.82447,35.79337],[-109.80458,35.79803],[-109.78875,35.78745],[-109.79586,35.77993],[-109.78917,35.77048],[-109.76387,35.76708],[-109.75493,35.7512],[-109.72165,35.75861],[-109.71682,35.73601],[-109.70015,35.73682],[-109.67795,35.76211],[-109.66245,35.76836],[-109.65923,35.747],[-109.62367,35.74191],[-109.57947,35.76827],[-109.54832,35.81953],[-109.52886,35.79855],[-109.51089,35.79242],[-109.45835,35.82314],[-109.43733,35.8158],[-109.4057,35.85249],[-109.34115,35.89643],[-109.30494,35.89165],[-109.27218,35.89976],[-109.2597,35.88131],[-109.2407,35.89154],[-109.20564,35.88123],[-109.19881,35.9034],[-109.16041,35.93872],[-109.12746,35.94573],[-109.10512,35.96649],[-109.09156,35.98955],[-109.09924,36.0081],[-109.07047,36.02505],[-109.04477,36.03355],[-109.0203,36.00323],[-109.0178,35.9951],[-109.02592,35.98727],[-108.98702,35.98888],[-108.97217,35.9808],[-108.94588,35.98662],[-108.93922,35.99992],[-108.91958,36.00634],[-108.90249,36.02727],[-108.89273,36.06524],[-108.85722,36.06249],[-108.85293,36.08626],[-108.87039,36.09376],[-108.86619,36.10915],[-108.90204,36.11574],[-108.92185,36.09941],[-108.94373,36.10226],[-108.9357,36.11521],[-108.93911,36.12948],[-108.96273,36.14976],[-108.94722,36.16175],[-108.94665,36.18718],[-108.94007,36.19235],[-108.94324,36.21528],[-108.95029,36.21963],[-108.93504,36.22801],[-108.94989,36.23227],[-108.94561,36.24035],[-108.9525,36.25485],[-108.97156,36.25144],[-108.95601,36.28344],[-108.98333,36.30247],[-108.97884,36.3204],[-109.00267,36.32778],[-109.0382,36.31093],[-109.06452,36.31128],[-109.04445,36.32798],[-109.04275,36.3483],[-109.07565,36.36536],[-109.05478,36.39668],[-109.06239,36.39966],[-109.05965,36.41308],[-109.08615,36.4235],[-109.07769,36.43861],[-109.09278,36.45992],[-109.11118,36.4607],[-109.11761,36.4687],[-109.14852,36.46617],[-109.15905,36.4799],[-109.17309,36.47888],[-109.17546,36.49352],[-109.19952,36.50236],[-109.23434,36.49789],[-109.27456,36.52263],[-109.27711,36.53888],[-109.29452,36.55995],[-109.26744,36.58173],[-109.2773,36.58673],[-109.26675,36.63146],[-109.2741,36.64657],[-109.24209,36.69358],[-109.25969,36.72005],[-109.24895,36.72894],[-109.24032,36.72458],[-109.20729,36.74787],[-109.2077,36.77296],[-109.18746,36.77296],[-109.17364,36.79355],[-109.12877,36.79844],[-109.12067,36.83724],[-109.07988,36.87264],[-109.07184,36.90827],[-109.08011,36.92304],[-109.07085,36.93727],[-109.05392,36.93969],[-109.04888,36.95231],[-109.00913,36.97158],[-108.99794,36.98553],[-108.97277,36.97183],[-108.98019,36.98266],[-108.9722,36.99541],[-108.98063,37.01076],[-108.97666,37.01793],[-108.92754,37.05484],[-108.91546,37.08554],[-108.86329,37.09821],[-108.84991,37.11311],[-108.8223,37.17388],[-108.79362,37.1956],[-108.80844,37.21438],[-108.80271,37.23172],[-108.81603,37.23903],[-108.80899,37.24966],[-108.81872,37.26022],[-108.81508,37.2698],[-108.79128,37.2721],[-108.7772,37.28426],[-108.75961,37.26862],[-108.69957,37.26545],[-108.67226,37.27288],[-108.6368,37.25816],[-108.62414,37.24214],[-108.61046,37.24263],[-108.60729,37.2522],[-108.56976,37.2659],[-108.52616,37.26371],[-108.48667,37.27827],[-108.45003,37.2788],[-108.43936,37.2833],[-108.4405,37.30426],[-108.41917,37.31138],[-108.41711,37.3374],[-108.40228,37.3576],[-108.39792,37.39629],[-108.3861,37.40439],[-108.39212,37.42333],[-108.41426,37.43909],[-108.44449,37.44212],[-108.45846,37.43418],[-108.50891,37.46057],[-108.525,37.4558],[-108.554,37.47968],[-108.5535,37.49132],[-108.58669,37.49121],[-108.59478,37.52799],[-108.59095,37.55091],[-108.60887,37.56012],[-108.60107,37.57349],[-108.6136,37.59254],[-108.63308,37.58605],[-108.65978,37.59698],[-108.69119,37.58614],[-108.71879,37.60272],[-108.73201,37.59547],[-108.7521,37.61167],[-108.7463,37.62548],[-108.75509,37.63026],[-108.75858,37.65415],[-108.74781,37.67131],[-108.76151,37.67547],[-108.77475,37.72127],[-108.77051,37.74458],[-108.75715,37.76362],[-108.76776,37.76509],[-108.78255,37.78719],[-108.81763,37.75686],[-108.88019,37.78349],[-108.88217,37.81024],[-108.85549,37.82277],[-108.84571,37.84721],[-108.8274,37.8586],[-108.83726,37.87497],[-108.83528,37.91577],[-108.85811,37.91218],[-108.86652,37.9316],[-108.89379,37.92335],[-108.90657,37.93687],[-108.92617,37.9245],[-108.93704,37.93399],[-108.97051,37.90733],[-108.98157,37.91086],[-108.98131,37.91934],[-109.00249,37.93737],[-109.00324,37.96218],[-109.0319,37.95444],[-109.03354,37.93162],[-109.04688,37.92146],[-109.10336,37.91624],[-109.12907,37.90094],[-109.13729,37.88566],[-109.17001,37.87642],[-109.20424,37.88724],[-109.21552,37.90345],[-109.23923,37.9035],[-109.25661,37.93043],[-109.27846,37.92393],[-109.27073,37.95185],[-109.3087,37.9811]]]}}],"source":"https://hydro.nationalmap.gov/arcgis/rest/services/wbd/MapServer/3","scope":"upper-colorado","filter":"huc6 LIKE '14%'","unit_count":10}
