{"type":"FeatureCollection","source":"https://services1.arcgis.com/99lidPhWCzftIe9K/ArcGIS/rest/services/UtahStateBoundary/FeatureServer/0","feature_count":1,"features":[{"type":"Feature","properties":{"name":"Utah"},"geometry":{"type":"Polygon","coordinates":[[[-113.47489,41.99331],[-113.67173,41.99087],[-113.81468,41.98866],[-113.87214,41.9882],[-113.89992,41.98848],[-113.9315,41.9899],[-113.99016,41.99311],[-114.01278,41.99327],[-114.04149,41.99388],[-114.04139,41.97772],[-114.04019,41.94881],[-114.04042,41.93425],[-114.03996,41.9061],[-114.03998,41.89162],[-114.04043,41.87699],[-114.04028,41.86249],[-114.04039,41.84802],[-114.0399,41.83364],[-114.03978,41.80489],[-114.04015,41.776],[-114.03972,41.74082],[-114.03988,41.73358],[-114.0398,41.726],[-114.03947,41.71866],[-114.03973,41.71184],[-114.03988,41.69728],[-114.03978,41.63551],[-114.0405,41.57408],[-114.04076,41.53045],[-114.04069,41.51444],[-114.04029,41.48894],[-114.04062,41.37103],[-114.04054,41.3417],[-114.04129,41.22735],[-114.0414,41.18352],[-114.04123,41.15446],[-114.04157,41.1255],[-114.04151,41.09652],[-114.0418,41.02103],[-114.04216,40.98258],[-114.04282,40.83833],[-114.04289,40.79316],[-114.04371,40.7354],[-114.0455,40.48896],[-114.04508,40.43083],[-114.04568,40.42455],[-114.04611,40.40185],[-114.0461,40.31506],[-114.04633,40.27166],[-114.04627,40.24296],[-114.0466,40.19973],[-114.04651,40.14195],[-114.04717,39.85184],[-114.04777,39.81115],[-114.04787,39.77846],[-114.04777,39.76478],[-114.04717,39.7381],[-114.04685,39.70968],[-114.04725,39.68059],[-114.04752,39.63477],[-114.04767,39.53903],[-114.04835,39.33546],[-114.04892,39.03207],[-114.04966,38.85834],[-114.04963,38.77128],[-114.04995,38.58806],[-114.05014,38.52493],[-114.05053,38.49612],[-114.05023,38.48269],[-114.05032,38.42498],[-114.04956,38.32372],[-114.04958,38.28031],[-114.04934,38.26607],[-114.05007,38.25199],[-114.05036,38.23774],[-114.05012,38.20917],[-114.04997,38.15192],[-114.05014,38.11097],[-114.05005,38.09676],[-114.05046,38.05388],[-114.05031,38.03955],[-114.05028,37.98],[-114.05052,37.95489],[-114.05015,37.89446],[-114.04965,37.88111],[-114.04999,37.86677],[-114.0499,37.8524],[-114.04948,37.83798],[-114.04962,37.82354],[-114.04831,37.80943],[-114.04916,37.79492],[-114.04927,37.78055],[-114.04987,37.76615],[-114.05166,37.75194],[-114.05202,37.67925],[-114.05184,37.66471],[-114.05214,37.65037],[-114.05228,37.60685],[-114.05287,37.59249],[-114.0528,37.47221],[-114.05264,37.4639],[-114.05286,37.4349],[-114.05193,37.41771],[-114.05176,37.32965],[-114.0519,37.31996],[-114.05164,37.30432],[-114.05194,37.29112],[-114.05173,37.26217],[-114.05165,37.17621],[-114.05188,37.16201],[-114.05195,37.11841],[-114.05253,37.1042],[-114.0509,37.07534],[-114.05009,37.01712],[-114.05006,37.0002],[-113.41531,36.99996],[-113.07092,37.00004],[-112.90532,37.00034],[-112.88697,37.00026],[-112.86918,37.00041],[-112.70055,37.00047],[-112.32644,37.00124],[-112.05547,37.00108],[-111.86982,37.00119],[-111.85628,37.00108],[-111.46209,37.00159],[-111.30861,37.00148],[-111.29704,37.00122],[-111.27895,37.00109],[-111.15059,37.00096],[-111.06496,37.00235],[-110.95672,37.00256],[-110.95498,37.00243],[-110.81398,37.00249],[-110.74194,37.00309],[-110.63201,37.00373],[-110.63078,37.00354],[-110.49031,37.00363],[-110.46974,36.99766],[-110.18438,36.99825],[-109.96741,36.99842],[-109.8253,36.99821],[-109.62433,36.99825],[-109.53396,36.99919],[-109.11852,36.99939],[-109.04518,36.99898],[-109.04524,37.07116],[-109.04504,37.11477],[-109.04594,37.20055],[-109.04535,37.21395],[-109.04586,37.30291],[-109.04565,37.36047],[-109.04505,37.41846],[-109.04281,37.50479],[-109.04158,37.56214],[-109.04194,37.57626],[-109.042,37.59058],[-109.04185,37.68902],[-109.04205,37.74742],[-109.04204,37.92565],[-109.04209,37.93687],[-109.04278,37.96583],[-109.04296,37.97991],[-109.04288,38.03643],[-109.04224,38.0511],[-109.04199,38.07956],[-109.0426,38.09391],[-109.04258,38.15719],[-109.04285,38.16627],[-109.0602,38.27553],[-109.06021,38.27824],[-109.06003,38.43771],[-109.06019,38.46283],[-109.05995,38.4745],[-109.06017,38.50351],[-109.0597,38.61825],[-109.05984,38.71559],[-109.05897,38.75304],[-109.05741,38.79686],[-109.05405,38.87543],[-109.05251,39.01376],[-109.0517,39.10287],[-109.05118,39.14175],[-109.05131,39.19094],[-109.05105,39.22233],[-109.05114,39.32195],[-109.05103,39.35118],[-109.05069,39.3595],[-109.05101,39.38489],[-109.05119,39.48917],[-109.05145,39.52724],[-109.05146,39.58499],[-109.05117,39.63575],[-109.05133,39.67483],[-109.05111,39.72554],[-109.051,39.81936],[-109.05035,39.84953],[-109.0507,39.95925],[-109.05119,40.01075],[-109.0509,40.03406],[-109.05104,40.04938],[-109.05077,40.09301],[-109.05094,40.10751],[-109.05102,40.15856],[-109.0509,40.1946],[-109.05104,40.26688],[-109.05088,40.42665],[-109.05125,40.44153],[-109.05013,40.52829],[-109.04879,40.56645],[-109.04803,40.58063],[-109.0481,40.59512],[-109.04777,40.60911],[-109.04855,40.65177],[-109.04911,40.66621],[-109.04893,40.7751],[-109.0485,40.79669],[-109.04847,40.81461],[-109.04898,40.87323],[-109.04889,40.88777],[-109.04952,40.93218],[-109.04971,40.97531],[-109.05004,41.0007],[-109.08141,41.00065],[-109.15644,41.00096],[-109.17523,41.00088],[-109.19782,41.00119],[-109.21326,41.00201],[-109.23249,41.00212],[-109.25002,41.00106],[-109.30698,41.00053],[-109.49653,40.99923],[-109.52262,40.99891],[-109.536,40.99841],[-109.55544,40.99858],[-109.63156,40.99852],[-109.8211,40.99793],[-109.86697,40.99765],[-109.99142,40.99735],[-110.00088,40.99746],[-110.08846,40.99714],[-110.16456,40.99616],[-110.18388,40.99576],[-110.22177,40.9957],[-110.27412,40.99482],[-110.50509,40.99481],[-110.54606,40.99635],[-110.68128,40.99624],[-110.86638,40.99721],[-110.90436,40.99719],[-110.98054,40.99759],[-110.98212,40.99781],[-111.00605,40.99797],[-111.04683,40.99788],[-111.04669,41.06792],[-111.04683,41.15491],[-111.04671,41.2275],[-111.04683,41.24219],[-111.04643,41.31448],[-111.04628,41.44416],[-111.0457,41.53076],[-111.04577,41.58855],[-111.0461,41.63205],[-111.04592,41.64651],[-111.0461,41.66099],[-111.046,41.68685],[-111.04639,41.70129],[-111.04651,41.71582],[-111.0464,41.74724],[-111.0465,41.81969],[-111.04673,41.86112],[-111.04669,41.86498],[-111.04637,41.86659],[-111.04664,41.86871],[-111.04636,41.87022],[-111.0466,41.87199],[-111.04646,41.89096],[-111.04669,41.90658],[-111.04646,41.9639],[-111.04673,42.00171],[-111.2475,42.00138],[-111.40832,42.00072],[-111.44553,42.00034],[-111.46429,41.99975],[-111.48353,41.99955],[-111.56094,41.99959],[-111.66253,41.9993],[-111.69299,41.99942],[-111.83772,41.99865],[-111.95463,41.99843],[-112.01578,41.99787],[-112.03664,41.99782],[-112.0705,41.99805],[-112.11575,41.9978],[-112.15398,41.99723],[-112.17316,42.00152],[-112.18976,42.00114],[-112.36622,42.00106],[-112.45996,42.00074],[-112.48256,42.00083],[-112.53816,42.0007],[-112.78041,41.99979],[-113.0188,41.99808],[-113.25649,41.9959],[-113.33606,41.99491],[-113.45413,41.99374],[-113.47489,41.99331]]]}}]}
